name,address,lat,lng,category,,
구정빌딩,서울특별시 논현로 868 (개방화장실),37.526085 ,127.028885 ,1,,
중산빌딩,서울특별시 논현로 878 (개방화장실),37.527091 ,127.028952 ,1,,1 = 화장실
백영신사빌딩,서울특별시 도산대로 307 (개방화장실),37.522276 ,127.034897 ,1,,2 = 무료 반려견 운동장
압구정주유소,서울특별시 언주로842 (개방화장실),37.525347 ,127.033803 ,1,,3 = 동물병원
한양주유소,서울특별시 압구정로 302 (개방화장실),37.528808 ,127.034161 ,1,,4 = 쓰레기통
반도상가,서울특별시 압구정로 306 (개방화장실),37.528855 ,127.034753 ,1,,5 = 애견동반식당 
쌍봉빌딩,서울특별시 언주로 874 (개방화장실),37.528589 ,127.034134 ,1,,6 = 애견카페
씨네시티,서울특별시 도산대로 323 (개방화장실),37.522897 ,127.037016 ,1,,7 = 애견동반카페
한양타운,서울특별시 선릉로 823 (개방화장실),37.525636 ,127.039343 ,1,,8 = 공원
배강빌딩,서울특별시 선릉로 801 (개방화장실),37.523572 ,127.038833 ,1,,
현대상가 4동,서울특별시 압구정로29길 71 (개방화장실),37.533603 ,127.028326 ,1,,
현대상가 10차동,서울특별시 압구정로29길 69 (개방화장실),37.531086 ,127.025109 ,1,,
주구 1상가,서울특별시 압구정로29길 68 (개방화장실),37.532536 ,127.029187 ,1,,
주구 2상가,서울특별시 압구정로29길 68 (개방화장실),37.531534 ,127.029273 ,1,,
금강쇼핑센터,서울특별시 압구정로 201 (개방화장실),37.501578 ,127.036157 ,1,,
성지하이츠 3차 오피스텔,서울특별시 논현로 507 (개방화장실),37.500849 ,127.035677 ,1,,
성지하이츠 2차 오피스텔,서울특별시 테헤란로 147 (개방화장실),37.507440 ,127.035249 ,1,,
송산빌딩,서울특별시 봉은사로 210 (개방화장실),37.502734 ,127.036487 ,1,,
GS칼텍스 타워주유소,서울특별시 논현로 516 (개방화장실),37.501995 ,127.037336 ,1,,
GS타워,서울특별시 논현로 508 (개방화장실),37.504697 ,127.048013 ,1,,
신도벤처타워,서울특별시 테헤란로 333 (개방화장실),37.502627 ,127.045014 ,1,,
㈜동산빌딩 대아빌딩점,서울특별시 테헤란로 44길 5 (개방화장실),37.499744 ,127.034955 ,1,,
아크플레이스(구 캐피탈타워),서울특별시 테헤란로 142 (개방화장실),37.498565 ,127.035027 ,1,,
LG 에클라트 오피스텔,서울특별시 테헤란로20길 19 (개방화장실),37.497651 ,127.036613 ,1,,
광택 선팅 전문,서울특별시 논현로79길 20 (개방화장실),37.494763 ,127.035213 ,1,,
우성빌딩,서울특별시 역삼로 145 (개방화장실),37.499549 ,127.028248 ,1,,
케이스퀘어강남,서울특별시 강남대로94길 11 (개방화장실),37.497286 ,127.032134 ,1,,
커피스미스빌딩,서울특별시 테헤란로8길 25 (개방화장실),37.497342 ,127.032687 ,1,,
감람교회,서울특별시 논현로85길 71 (개방화장실),37.494384 ,127.035079 ,1,,
서광주유소,서울특별시 역삼로 142 (개방화장실),37.491375 ,127.032511 ,1,,
강남역 서희스타힐스,서울특별시 도곡로3길 19 (개방화장실),37.491057 ,127.032654 ,1,,
르메이에르타운,서울특별시 도곡로3길 13 (개방화장실),37.501967 ,127.044268 ,1,,
한화진넥스빌,서울특별시 언주로86길 11 (개방화장실),37.503172 ,127.047937 ,1,,
선릉이스타빌,서울특별시 테헤란로52길 15 (개방화장실),37.483158 ,127.060395 ,1,,
오성빌딩,서울특별시 선릉로 38 (개방화장실),37.484588 ,127.044171 ,1,,
유창빌딩,서울특별시 강남구 논현로34길 26 (개방화장실),37.489328 ,127.046312 ,1,,
삼성아파트 상가,서울특별시 남부순환로379길 14 (개방화장실),37.488472 ,127.048733 ,1,,
SK리더스뷰,서울특별시 남부순환로 2763 (개방화장실),37.492242 ,127.041968 ,1,,
진달래 주유소,서울특별시 도곡로 208 (개방화장실),37.491984 ,127.040676 ,1,,
농협중앙회 도곡동지점,서울특별시 도곡로 194 (개방화장실),37.491451 ,127.038858 ,1,,
크리스빌딩(구한웰빌딩),서울특별시 도곡로 176 (개방화장실),37.491047 ,127.037701 ,1,,
선진주유소,서울특별시 도곡로 162 (개방화장실),37.490560 ,127.035782 ,1,,
진양까스,서울특별시 도곡로 142 (개방화장실),37.489377 ,127.032201 ,1,,
대신증권㈜,서울특별시 강남대로 292 (개방화장실),37.489004 ,127.032417 ,1,,
부영빌딩,서울특별시 강남대로 286 (개방화장실),37.487927 ,127.033183 ,1,,
도곡푸르지오102동,서울특별시 강남대로54길 6 (개방화장실),37.485260 ,127.034430 ,1,,
양재SK허브프리모,서울특별시 강남대로240 (개방화장실),37.485185 ,127.035884 ,1,,
도곡스타클래스,서울특별시 남부순환로 2615 (개방화장실),37.485415 ,127.043319 ,1,,
현대오일뱅크 도곡셀프주유소,서울특별시 남부순환로 2718 (개방화장실),37.483360 ,127.042793 ,1,,
유진주유소,서울특별시 논현로 152 (개방화장실),37.495365 ,127.052720 ,1,,
도곡렉슬상가,서울특별시 선릉로 225 (개방화장실),37.495839 ,127.052736 ,1,,
진달래(아) 상가,서울특별시 선릉로 227 (개방화장실),37.515974 ,127.065217 ,1,,
미소빌딩,서울특별시 영동대로112길 61 (개방화장실),37.510391 ,127.055096 ,1,,
백영삼성빌딩,서울특별시 삼성로 546 (개방화장실),37.509908 ,127.055340 ,1,,
삼성동 업무시설,서울특별시 삼성로 538 (개방화장실),37.507482 ,127.057165 ,1,,
옥산빌딩,서울특별시 테헤란로 503 (개방화장실),37.514281 ,127.062147 ,1,,
광동한방병원,서울특별시 봉은사로 612 (개방화장실),37.509916 ,127.065115 ,1,,
현대삼성동주유소,서울특별시 테헤란로 619 (개방화장실),37.510150 ,127.066049 ,1,,
덕명빌딩,서울특별시 테헤란로 625 (개방화장실),37.513508 ,127.042865 ,1,,
예림빌딩,서울특별시 선릉로 638 (개방화장실),37.511236 ,127.043820 ,1,,
선진빌딩,서울특별시 선릉로 608 (개방화장실),37.510645 ,127.044014 ,1,,
삼릉빌딩,서울특별시 선릉로 602 (개방화장실),37.511019 ,127.045242 ,1,,
백영삼릉빌딩,서울특별시 봉은사로 413 (개방화장실),37.512588 ,127.050792 ,1,,
S-TOWER,서울특별시 봉은사로 469 (개방화장실),37.513484 ,127.052718 ,1,,
스타벅스,서울특별시 삼성로 605 (개방화장실),37.512367 ,127.052027 ,1,,
쌍용플래티넘,서울특별시 봉은사로 474 (개방화장실),37.511885 ,127.053593 ,1,,
GS칼텍스㈜삼성로점,서울특별시 삼성로 563 (개방화장실),37.509303 ,127.053570 ,1,,
삼성파크아파트,서울특별시 삼성로99길 14 (개방화장실),37.506024 ,127.048995 ,1,,
덕우빌딩,서울특별시 선릉로94길 7 (개방화장실),37.489128 ,127.104813 ,1,,
수서파출소,서울특별시 강남구 밤고개로1길 48 (공중화장실),37.465176 ,127.107362 ,1,,
대왕파출소,서울특별시 강남구 헌릉로 623 (공중화장실),37.494131 ,127.078783 ,1,,
서울주택도시공사 본관화장실,서울특별시 강남구 개포로 621 (공중화장실),37.472529 ,127.115295 ,1,,
율현3공원,서울특별시 강남구 율현동 77-2 (공중화장실),37.504634 ,127.025031 ,1,,
신논현역,서울특별시 강남구 봉은사로 지하102 (공중화장실),37.508862 ,127.063073 ,1,,
삼성역(2),서울특별시 강남구 테헤란로 538 (공중화장실),37.504503 ,127.048943 ,1,,
선릉역(2),서울특별시 강남구 테헤란로 지하340 (공중화장실),37.500716 ,127.036618 ,1,,
역삼역(2),서울특별시 강남구 테헤란로 지하156 (공중화장실),37.498165 ,127.028308 ,1,,
강남역(2),서울특별시 강남구 강남대로 지하396 (공중화장실),37.526431 ,127.028481 ,1,,
압구정역(3),서울특별시 강남구 압구정로 지하172 (공중화장실),37.516432 ,127.020327 ,1,,
신사역(3),서울특별시 강남구 도산대로 지하102 (공중화장실),37.486961 ,127.046615 ,1,,
매봉역(3),서울특별시 강남구 남부순환로 지하2744 (공중화장실),37.490865 ,127.055323 ,1,,
도곡역(3),서울특별시 강남구 남부순환로 지하2814 (공중화장실),37.494563 ,127.063430 ,1,,
대치역(3),서울특별시 강남구 남부순환로 지하2952 (공중화장실),37.496717 ,127.071719 ,1,,
학여울역(3),서울특별시 강남구 남부순환로 지하3104 (공중화장실),37.493722 ,127.079494 ,1,,
대청역(3),서울특별시 강남구 일원로 지하2 (공중화장실),37.484074 ,127.084452 ,1,,
일원역(3),서울특별시 강남구 일원로 지하121 (공중화장실),37.487389 ,127.101859 ,1,,
수서역(3),서울특별시 강남구 광평로 지하270 (공중화장실),37.519441 ,127.053645 ,1,,
청담역(7),서울특별시 강남구 학동로 지하508 (공중화장실),37.517189 ,127.041301 ,1,,
강남구청역(7),서울특별시 강남구 학동로 지하346 (공중화장실),37.514206 ,127.031464 ,1,,
학동역(7),서울특별시 강남구 학동로 지하180 (공중화장실),37.506053 ,127.023987 ,1,,
논현역(7),서울특별시 강남구 강남대로 492-2 (공중화장실),37.498165 ,127.028308 ,1,,
논현역(7),서울특별시 강남구 강남대로 492-2 (공중화장실),37.497781 ,127.082476 ,1,,
강남역 지하상가1,서울특별시 강남대로 지하396 (공중화장실),37.509442 ,127.041950 ,1,,
강남역 지하상가2,서울특별시 강남대로 지하396 (공중화장실),37.485411 ,127.054705 ,1,,
마루공원 원형 화장실,서울특별시 강남구 개포로625 (공중화장실),37.485411 ,127.054705 ,1,,
마루공원 야외 화장실,서울특별시 강남구 개포로625 (공중화장실),37.484631 ,127.056092 ,1,,
에코파크 관리동 화장실,서울특별시 강남구 개포로625 (공중화장실),37.483280 ,127.054393 ,1,,
에코파크 야외 화장실,서울특별시 강남구 개포로625 (공중화장실),37.489141 ,127.070872 ,1,,
강남구비즈니스센터,서울특별시 봉은사로 320 (공중화장실),37.488688 ,127.066845 ,1,,
경남1차상가,서울특별시 언주로 110 (개방화장실),37.488755 ,127.067333 ,1,,
경남2차상가,서울특별시 언주로110 (개방화장실),37.488906 ,127.066625 ,1,,
개포우성3차(아) 상가,서울특별시 개포로 307 (개방화장실),37.488558 ,127.067444 ,1,,
현대1차아파트 상가,서울특별시 개포로303 (개방화장실),37.488747 ,127.068116 ,1,,
개포7단지상가,서울특별시 개포로 516 (개방화장실),37.489142 ,127.067521 ,1,,
개포빌딩,서울특별시 삼성로 38 (개방화장실),37.483586 ,127.051956 ,1,,
삼성빌딩,서울특별시 개포로 82길 7 (개방화장실),37.476792 ,127.055926 ,1,,
청송빌딩,서울특별시 삼성로 40 (개방화장실),37.472370 ,127.051706 ,1,,
삼우빌딩(개포5단지),서울특별시 개포로82길 11 (개방화장실),37.475322 ,127.050395 ,1,,
장우빌딩,서울특별시 개포로82길 13-11 (개방화장실),37.476213 ,127.049572 ,1,,
청우빌딩,서울특별시 개포로 506 (개방화장실),37.478738 ,127.048138 ,1,,
우성빌딩,서울특별시 언주로 107 (개방화장실),37.479195 ,127.049668 ,1,,
개포우성6차(아) 상가,서울특별시 언주로 3 (개방화장실),37.479212 ,127.049845 ,1,,
개포주유소,서울특별시 양재대로 339 (개방화장실),37.479537 ,127.050141 ,1,,
전남친환경유통센터빌딩,서울특별시 논현로10길 29 (개방화장실),37.477186 ,127.048051 ,1,,
연우빌딩,서울특별시 개포로22길46 (개방화장실),37.478531 ,127.049119 ,1,,
희영빌딩,서울특별시 개포로 232 (개방화장실),37.478460 ,127.049747 ,1,,
신영빌딩,서울특별시 개포로 249 (개방화장실),37.477733 ,127.048089 ,1,,
남강빌딩,서울특별시 개포로 251 (개방화장실),37.478219 ,127.047574 ,1,,
강남동산교회,서울특별시 개포로 257 (개방화장실),37.478578 ,127.055484 ,1,,
대가,서울특별시 개포로 20길 26 (개방화장실),37.518533 ,127.028244 ,1,,
밀란,서울특별시 개포로 28길 4 (개방화장실),37.513103 ,127.020859 ,1,,
리엔,서울특별시 개포로 28길 9 (개방화장실),37.515026 ,127.023031 ,1,,
영동올뱅이집,서울특별시 개포로 22길 16 (개방화장실),37.514476 ,127.029238 ,1,,
SP타이어,서울특별시 개포로 22길 8 (개방화장실),37.511432 ,127.023358 ,1,,
개포자이르네이마트,서울특별시 언주로7길6 (개방화장실),37.510515 ,127.023536 ,1,,
SK주유소,서울특별시 논현로 747 (개방화장실),37.510682 ,127.024602 ,1,,
전기공사공제조합,서울특별시 강남대로 574 (개방화장실),37.512207 ,127.028563 ,1,,
논현아파트 상가,서울특별시 강남대로146길 28 (개방화장실),37.513568 ,127.030541 ,1,,
늘사랑교회,서울특별시 강남대로146길 28 (개방화장실),37.510061 ,127.022960 ,1,,
서린빌딩,서울특별시 논현로131길12 (개방화장실),37.520307 ,127.033979 ,1,,
114빌딩(베스트프랜드㈜),서울특별시 학동로 114 (개방화장실),37.519298 ,127.034451 ,1,,
동화히스토리,서울특별시 학동로4길 15 (개방화장실),37.516792 ,127.034928 ,1,,
논현1호 주차장,서울특별시 학동로6길 19 (개방화장실),37.519382 ,127.035198 ,1,,
논현2호 주차장,서울특별시 학동로20길 13 (개방화장실),37.513220 ,127.031501 ,1,,
진우빌딩,서울특별시 논현로 667 (개방화장실),37.512791 ,127.035028 ,1,,
세일빌딩,서울특별시 학동로2길 19 (개방화장실),37.510735 ,127.032735 ,1,,
나누리병원,서울특별시 언주로 731 (개방화장실),37.509943 ,127.036678 ,1,,
보전빌딩,서울특별시 언주로 725 (개방화장실),37.508863 ,127.037781 ,1,,
송암빌딩,서울특별시 언주로 709 (개방화장실),37.516756 ,127.040841 ,1,,
두산빌딩,서울특별시 언주로 726 (개방화장실),37.516953 ,127.037173 ,1,,
헤리츠타워(컨벤션헤리츠),서울특별시 논현로 662 (개방화장실),37.490706 ,127.056143 ,1,,
마샬빌딩(강남지인병원),서울특별시 언주로631 (개방화장실),37.493155 ,127.063000 ,1,,
SK힐탑 주유소,서울특별시 논현로 640 (개방화장실),37.493349 ,127.061917 ,1,,
팍스타워,서울특별시 언주로 609 (개방화장실),37.493646 ,127.062321 ,1,,
파크랜드빌딩,서울특별시 언주로 601 (개방화장실),37.493881 ,127.062952 ,1,,
SK 허브블루,서울특별시 학동로 342 (개방화장실),37.496294 ,127.060603 ,1,,
G빌딩(펀비어킹),서울특별시 언주로 134길 19 (개방화장실),37.493676 ,127.060358 ,1,,
그랑프리엔,서울특별시 남부순환로 2912 (개방화장실),37.493494 ,127.059773 ,1,,
선경상가,서울특별시 삼성로 151 (개방화장실),37.493167 ,127.059165 ,1,,
윈플러스상가,서울특별시 남부순환로 2936 (개방화장실),37.492938 ,127.058878 ,1,,
대치풍림빌딩,서울특별시 남부순환로 2942 (개방화장실),37.492752 ,127.058529 ,1,,
대치퍼스트빌딩,서울특별시 삼성로155 (개방화장실),37.493052 ,127.058298 ,1,,
카이로스빌딩,서울특별시 삼성로51길11 (개방화장실),37.493529 ,127.056560 ,1,,
대치클래시아,서울특별시 남부순환로 2927 (개방화장실),37.492182 ,127.057411 ,1,,
남서울종합시장,서울특별시 남부순환로2921 (개방화장실),37.492429 ,127.057956 ,1,,
청실종합상가,서울특별시 남부순환로 2917 (개방화장실),37.496636 ,127.058848 ,1,,
우일상가,서울특별시 남부순환로 2915 (개방화장실),37.498112 ,127.060009 ,1,,
동하빌딩,서울특별시 남부순환로 2913 (개방화장실),37.496623 ,127.055233 ,1,,
㈜동하개발 메디컬센터,서울특별시 남부순환로 397길 57 (개방화장실),37.498856 ,127.071367 ,1,,
성은교회,서울특별시 남부순환로391길 25 (개방화장실),37.499452 ,127.044670 ,1,,
여천빌딩,서울특별시 남부순환로 2909 (개방화장실),37.500802 ,127.043077 ,1,,
청우빌딩,서울특별시 남부순환로 2911 (개방화장실),37.500567 ,127.042382 ,1,,
대치삼성(아) 상가,서울특별시 도곡로78길 22 (개방화장실),37.497920 ,127.042974 ,1,,
강남메이저의원(구 미즈메디병원),서울특별시 도곡로 452 (개방화장실),37.499236 ,127.048421 ,1,,
D'mark빌딩,서울특별시 도곡로 408 (개방화장실),37.495892 ,127.046476 ,1,,
쌍용(아)종합 상가,서울특별시 영동대로 210 (개방화장실),37.495774 ,127.039631 ,1,,
역삼자이상가,서울특별시 언주로 408 (개방화장실),37.494886 ,127.045838 ,1,,
개나리 주유소,서울특별시 언주로 423 (개방화장실),37.494166 ,127.045509 ,1,,
경남상가,서울특별시 언주로85길 13 (개방화장실),37.493385 ,127.043043 ,1,,
대건빌딩 하나이비인후과,서울특별시 역삼로 245 (개방화장실),37.484829 ,127.093396 ,1,,
한솔필리아,서울특별시 역삼로 310 (개방화장실),37.485667 ,127.089904 ,1,,
강남프라자,서울특별시 언주로314 (개방화장실),37.485485 ,127.086602 ,1,,
정도빌딩,서울특별시 논현로 340 (개방화장실),37.484838 ,127.089779 ,1,,
매봉주유소,서울특별시 언주로 307 (개방화장실),37.484761 ,127.080875 ,1,,
명품주유소,서울특별시 도곡로 249 (개방화장실),37.485531 ,127.084798 ,1,,
윤화돈까스,서울특별시 도곡로221 (개방화장실),37.485202 ,127.082673 ,1,,
태화기독교사회복지관,서울특별시 광평로 185 (개방화장실),37.482629 ,127.076520 ,1,,
서울충신교회,서울특별시 광평로31길 40 (개방화장실),37.495207 ,127.085825 ,1,,
까치마을 상가,서울특별시 광평로19길 10 (개방화장실),37.495752 ,127.075096 ,1,,
수서삼성(아) 상가,서울특별시 광평로31길 27 (개방화장실),37.494185 ,127.075215 ,1,,
푸른마을 상가,서울특별시 일원로14길 25 (개방화장실),37.494341 ,127.079648 ,1,,
목련타운(아) 상가,서울특별시 광평로19길 15 (개방화장실),37.494205 ,127.077648 ,1,,
샘터상가,서울특별시 일원로 120 (개방화장실),37.498448 ,127.077572 ,1,,
한솔(아) 상가,서울특별시 광평로10길 6 (개방화장실),37.497698 ,127.075475 ,1,,
유성빌딩(대청카센터),서울특별시 개포로 140길 6 (개방화장실),37.517641 ,127.041673 ,1,,
석탑플라자,서울특별시 개포로 109길 9 (개방화장실),37.520188 ,127.055456 ,1,,
대치2단지상가,서울특별시 개포동 12 (개방화장실),37.525090 ,127.051300 ,1,,
대청타워,서울특별시 개포로 623 (개방화장실),37.522905 ,127.056494 ,1,,
대청프라자,서울특별시 개포로109길 34 (개방화장실),37.520480 ,127.057576 ,1,,
학여울주유소,서울특별시 남부순환로 3170 (개방화장실),37.522445 ,127.057620 ,1,,
남서울가스,서울특별시 남부순환로 3154 (개방화장실),37.469992 ,127.109483 ,1,,
금하빌딩,서울특별시 학동로 401 (개방화장실),37.478924 ,127.046783 ,1,,
에이치케이웨딩홀,서울특별시 학동로 519 (개방화장실),37.466574 ,127.095568 ,1,,
원앙빌딩(한국마사회강남지점),서울특별시 도산대로 529 (개방화장실),37.469209 ,127.093131 ,1,,
신한양상가,서울특별시 영동대로138길 9 (개방화장실),37.521089 ,127.053227 ,1,,
화천회관빌딩,서울특별시 영동대로 702 (개방화장실),37.492095 ,127.088196 ,1,,
삼익쇼핑,서울특별시 학동로101길 26 (개방화장실),37.491980 ,127.073174 ,1,,
세곡해오름근린공원,서울특별시 강남구 세곡동214 (공중화장실),37.496036 ,127.075803 ,1,,
포이근린공원(출발마당),서울특별시 강남구 개포동 1248 (공중화장실),37.480721 ,127.080757 ,1,,
세천근린공원,서울특별시 강남구 세곡동603 (공중화장실),37.487541 ,127.105420 ,1,,
세곡근린공원,서울특별시 강남구 세곡동 산50-15 (공중화장실),37.480194 ,127.080821 ,1,,
청담근린공원,서울특별시 강남구 청담동 66-3 (공중화장실),37.478461 ,127.073541 ,1,,
일원까치어린이공원,서울특별시 강남구 일원동 712-4 (공중화장실),37.472234 ,127.059784 ,1,,
예지어린이공원,서울특별시 강남구 개포동 12-7 (공중화장실),37.472516 ,127.066463 ,1,,
한마음어린이공원,서울특별시 강남구 개포동 12-3 (공중화장실),37.474817 ,127.069308 ,1,,
일원장미어린이공원,서울특별시 강남구 일원동 732-4 (공중화장실),37.473246 ,127.071224 ,1,,
수서개나리어린이공원,서울특별시 강남구 수서동723-1 (공중화장실),37.473790 ,127.070879 ,1,,
자연학습장,서울특별시 강남구 일원동 산56 (공중화장실),37.485387 ,127.075586 ,1,,
유아숲체험장,서울특별시 강남구 일원동 산52-13 (공중화장실),37.479322 ,127.071542 ,1,,
개암약수터,서울특별시 강남구 개포동 산53-40 (공중화장실),37.477549 ,127.075334 ,1,,
천의약수터,서울특별시 강남구 개포동 산 53-30 (공중화장실),37.479706 ,127.079560 ,1,,
대룡약수터,서울특별시 강남구 개포동 118-21 (공중화장실),37.482080 ,127.047681 ,1,,
구룡천약수터,서울특별시 강남구 개포동 산 53-28 (공중화장실),37.484270 ,127.050239 ,1,,
습지원약수터,서울특별시 강남구 개포동 산53-42 (공중화장실),37.487751 ,127.058902 ,1,,
옛1약수터,서울특별시 강남구 일원동 산52-13 (공중화장실),37.486003 ,127.054309 ,1,,
용두천약수터,서울특별시 강남구 개포동 192 (공중화장실),37.494092 ,127.071848 ,1,,
옥수천약수터,서울특별시 강남구 개포동 산 53-32 (공중화장실),37.500437 ,127.074835 ,1,,
불국사둘레길,서울특별시 강남구 일원동 441 (공중화장실),37.500362 ,127.080863 ,1,,
대모산숲속야생화원,서울특별시 강남구 일원동 246-13 (공중화장실),37.501717 ,127.071456 ,1,,
양재천(영동2교),서울특별시 강남구 개포동1279 (공중화장실),37.492675 ,127.099587 ,1,,
양재천(밀리미교),서울특별시 강남구 도곡동 468 (공중화장실),37.472540 ,127.119146 ,1,,
양재천(영동3교),서울특별시 강남구 개포동175 (공중화장실),37.462118 ,127.117044 ,1,,
양재천(영동4교),서울특별시 강남구 개포동648-2 (공중화장실),37.465949 ,127.100350 ,1,,
양재천(영동6교),서울특별시 강남구 대치동805 (공중화장실),37.462277 ,127.104597 ,1,,
탄천양재천방문자센터,서울특별시 강남구 대치동3-3 (공중화장실),37.503043 ,127.054130 ,1,,
탄천(탄천1교),서울특별시 강남구 일원동580-3 (공중화장실),37.509787 ,127.043218 ,1,,
탄천(탄천2교),서울특별시 강남구 대치동78-28 (공중화장실),37.494538 ,127.041832 ,1,,
탄천(광평교),서울특별시 강남구 수서동329-34 (공중화장실),37.504997 ,127.051907 ,1,,
탄천(대곡교),서울특별시 강남구 율현동94 (공중화장실),37.488117 ,127.103069 ,1,,
세곡천(세곡3교),서울특별시 강남구 세곡동54 (공중화장실),37.499146 ,127.043103 ,1,,
세곡천(세곡1교),서울특별시 강남구 세곡동618 (공중화장실),37.514501 ,127.040981 ,1,,
세곡천(세곡5교),서울특별시 강남구 세곡동526-2 (공중화장실),37.503966 ,127.042910 ,1,,
대치노인복지센터,서울특별시 강남구 역삼로69길 22 (공중화장실),37.503255 ,127.035379 ,1,,
강남시니어플라자 공중화장실,서울특별시 강남구 봉은사로 332 (공중화장실),37.499762 ,127.078659 ,1,,
역삼노인복지센터,서울특별시 강남구 도곡로27길 27 (공중화장실),37.508798 ,127.066445 ,1,,
한국마사회 선릉지사,서울특별시 강남구 테헤란로 416 (공중화장실),37.517968 ,127.047060 ,1,,
에스알,서울특별시 강남구 광평로 281 (공중화장실),37.515911 ,127.052143 ,1,,
한국부동산원,서울특별시 강남구 언주로79길13 (공중화장실),37.493888 ,127.064272 ,1,,
한국토지주택공사,서울특별시 강남구 선릉로121길12 (공중화장실),37.516320 ,127.042315 ,1,,
공무원연금관리공단,서울특별시 강남구 언주로 508 (공중화장실),37.478820 ,127.051659 ,1,,
한국콘텐츠진흥원,서울특별시 강남구 논현로 525 (공중화장실),37.483379 ,127.086483 ,1,,
한국가스안전공사,서울특별시 강남구 남부순환로 3183 (공중화장실),37.488903 ,127.104991 ,1,,
한국에너지기술평가원,서울특별시 강남구 테헤란로 114길14 (공중화장실),37.509367 ,127.067100 ,1,,
강남구청,서울특별시 강남구 학동로 426 (공중화장실),37.508316 ,127.041018 ,1,,
삼성로별관,서울특별시 강남구 삼성로 628 (공중화장실),37.513865 ,127.029322 ,1,,
강남구민회관,서울특별시 강남구 삼성로 154 (공중화장실),37.515204 ,127.033846 ,1,,
강남구보건소,서울특별시 강남구 선릉로 668 (공중화장실),37.514907 ,127.060546 ,1,,
개포4동주민센터,서울특별시 강남구 개포로38길 12 (공중화장실),37.511292 ,127.048075 ,1,,
일원본동주민센터,서울특별시 강남구 광평로 126 (공중화장실),37.520798 ,127.054276 ,1,,
수서동주민센터,서울특별시 강남구 광평로 301-4 (공중화장실),37.518371 ,127.024133 ,1,,
강남 경찰서,서울특별시 강남구 테헤란로 114길11 (공중화장실),37.529347 ,127.035614 ,1,,
역삼지구대,서울특별시 강남구 언주로 108길20 (공중화장실),37.493549 ,127.077144 ,1,,
논현1파출소,서울특별시 강남구 학동로169 (공중화장실),37.491961 ,127.057095 ,1,,
논현2파출소,서울특별시 강남구 학동로227 (공중화장실),37.501333 ,127.043718 ,1,,
삼성1파출소,서울특별시 강남구 영동대로112길 4 (공중화장실),37.479778 ,127.051168 ,1,,
삼성2파출소,서울특별시 강남구 봉은사로 440 (공중화장실),37.492416 ,127.083374 ,1,,
청담파출소,서울특별시 강남구 학동로95길19 (공중화장실),37.465249 ,127.110104 ,1,,
신사파출소,서울특별시 강남구 도산대로 143 (공중화장실),37.465097 ,127.107177 ,1,,
압구정 파출소,서울특별시 강남구 압구정로 311 (공중화장실),37.530617 ,127.030652 ,1,,
수서경찰서,서울특별시 강남구 개포로617 (공중화장실),37.508627 ,127.067415 ,1,,
대치지구대,서울특별시 강남구 남부순환로 2907 (공중화장실),37.492151 ,127.073679 ,1,,
도곡지구대,서울특별시 강남구 언주로426 (공중화장실),37.483426 ,127.047081 ,1,,
개포파출소,서울특별시 강남구 개포로261 (공중화장실),37.477116 ,127.051886 ,1,,
일원파출소,서울특별시 강남구 일원로3길 35 (공중화장실),37.489001 ,127.105281 ,1,,
세곡동공중화장실(기존),서울특별시 강남구 헌릉로 649 (공중화장실),37.473306 ,127.099728 ,1,,
세곡동공중화장실(신설),서울특별시 강남구 헌릉로 621 (공중화장실),37.516972 ,127.022706 ,1,,
압구정동주민센터,서울특별시 강남구 압구정로33길 48 (공중화장실),37.498288 ,127.030103 ,1,,
강남운전면허시험장,서울특별시 강남구 테헤란로114길 23 (공중화장실),37.523539 ,127.038172 ,1,,
일원2동주민센터,서울특별시 강남구 개포로 607 (공중화장실),37.486138 ,127.042416 ,1,,
강남수도사업소,서울특별시 강남구 양재천로 199 (공중화장실),37.519099 ,127.046441 ,1,,
강남구민체육관,서울특별시 강남구 개포로28길 47 (공중화장실),37.527297 ,127.035756 ,1,,
강남스포츠문화센터,서울특별시 강남구 밤고개로1길 52 (공중화장실),37.499955 ,127.066977 ,1,,
못골한옥어린이도서관화장실,서울특별시 강남구 자곡로 7길 3 (공중화장실),37.508490 ,127.026223 ,1,,
국민연금공단,서울특별시 강남구 도산대로 128 (공중화장실),37.510313 ,127.046380 ,1,,
삼성세무서,"서울특별시 강남구 테헤란로 114, 5층,6층 (공중화장실)",37.475817 ,127.052046 ,1,,
압구정노인복지센터,서울특별시 강남구 도산대로53길 5 (공중화장실),37.486322 ,127.036793 ,1,,
매봉산 실내배드민턴장,서울특별시 강남구 남부순환로 2711 (공중화장실),37.499511 ,127.054466 ,1,,
청담평생학습관,서울특별시 강남구 학동로 67길 11 (공중화장실),37.494915 ,127.079318 ,1,,
압구정평생학습관,서울특별시 강남구 언주로 172길 26 (공중화장실),37.493148 ,127.087767 ,1,,
대치평생학습관,서울특별시 강남구 영동대로 57길 7 (공중화장실),37.504956 ,127.068203 ,1,,
논현초교 공영노외주차장,서울특별시 강남대로120길 33 (공중화장실),37.528354 ,127.032639 ,1,,
강남웰에이징센터 공영노외주차장,서울특별시 선릉로108길 27 (공중화장실),37.510279 ,127.066830 ,1,,
포이초교 공영노외주차장,서울특별시 개포로22길87 (공중화장실),37.522143 ,127.036934 ,1,,
언주초교 공영노외주차장,서울특별시 남부순환로363길 19 (공중화장실),37.497130 ,127.042447 ,1,,
도곡초교 공영노외주차장,서울특별시 선릉로64길 33 (공중화장실),37.484927 ,127.092842 ,1,,
대청역 공영노외주차장,서울특별시 개포로623-1 (공중화장실),37.474700 ,127.049895 ,1,,
탄천2호 공영노외주차장,서울특별시 양재대로55길 28 (공중화장실),37.470442 ,127.107195 ,1,,
탄천공영주차장(5번입구 제방위),서울특별시 강남구 역삼로107길 20-28 (공중화장실),37.493584 ,127.078073 ,1,,
탄천주차장,서울특별시 강남구 역삼로107길 20-28 (공중화장실),37.514067 ,127.032532 ,1,,
견인보관소,서울특별시 강남구 역삼로107길 20-28 (공중화장실),37.512065 ,127.026089 ,1,,
국민건강보험공단 강남북부지사,서울특별시 강남구 압구정로 38길 7 (공중화장실),37.486981 ,127.106951 ,1,,
강남소방서,서울특별시 강남구 테헤란로 629 (공중화장실),37.491983 ,127.073467 ,1,,
영동119안전센터,서울특별시 강남구 도산대로 320 (공중화장실),37.526842 ,127.027057 ,1,,
역삼119안전센터,서울특별시 강남구 역삼로 236 (공중화장실),37.523974 ,127.022796 ,1,,
수서119안전센터,서울특별시 강남구 광평로31길 6 (공중화장실),37.517283 ,127.037204 ,1,,
개포119안전센터,서울특별시 강남구 논현로10길 19 (공중화장실),37.493245 ,127.056775 ,1,,
세곡119안전센터,서울특별시 강남구 밤고개로 268 (공중화장실),37.499730 ,127.057850 ,1,,
강남우체국,서울특별시 강남구 개포로 619 (공중화장실),37.495373 ,127.033284 ,1,,
논현동우체국,서울특별시 강남구 학동로 212 (공중화장실),37.495974 ,127.046815 ,1,,
논현노인종합복지관,서울특별시 강남구 강남대로128길 59 (공중화장실),37.471496 ,127.094496 ,1,,
미미위강남세움센터,서울특별시 강남구 광평로60길 22 (공중화장실),37.496499 ,127.032029 ,1,,
강남장애인복지관,서울특별시 강남구 개포로 605 (공중화장실),37.484143 ,127.065350 ,1,,
강남관광정보센터,서울특별시 강남구 압구정로 161 (공중화장실),37.495679 ,127.071912 ,1,,
신사문화센터,서울특별시 강남구 압구정로 128 (공중화장실),37.491855 ,127.088026 ,1,,
논현2문화센터,서울특별시 강남구 학동로 43길 17 (공중화장실),37.490265 ,127.046208 ,1,,
대치1문화센터,서울특별시 강남구 남부순환로 391길 19 (공중화장실),37.490983 ,127.043769 ,1,,
대치4문화센터,서울특별시 강남구 도곡로 77길 23 (공중화장실),37.482613 ,127.066134 ,1,,
역삼1문화센터,서울특별시 강남구 역삼로 7길 16 (공중화장실),37.515490 ,127.025204 ,1,,
역삼2문화센터,서울특별시 강남구 도곡로 43길 25 (공중화장실),37.497594 ,127.036269 ,1,,
자곡문화센터,서울특별시 강남구 자곡로 100 (공중화장실),37.524391 ,127.035117 ,1,,
푸른솔도서관,서울특별시 강남구 테헤란로 8길 36 (공중화장실),37.489571 ,127.057160 ,1,,
힐링센터(개포),서울특별시 강남구 삼성로 3길 39 (공중화장실),37.492580 ,127.082653 ,1,,
세텍,서울특별시 강남구 남부순환로 3104 (공중화장실),37.495583 ,127.078604 ,1,,
일원1동주민센터,서울특별시 강남구 양재대로55길 14 (공중화장실),37.480989 ,127.078079 ,1,,
도곡근린공원 화장실,서울특별시 도곡동 산31-3 (공중화장실),37.489706 ,127.068291 ,1,,
도곡근린공원화장실,서울특별시 도곡동 산179-3 (공중화장실),37.489997 ,127.077453 ,1,,
개포근린공원,서울특별시 강남구 개포동 139 (공중화장실),37.487422 ,127.106323 ,1,,
학동근린공원,서울특별시 강남구 논현동 26 (공중화장실),37.526716 ,127.021477 ,1,,
역삼근린공원화장실,서울특별시 강남구 논현로79길 24 (공중화장실),37.499616 ,127.065915 ,1,,
도산근린공원,서울특별시 강남구 신사동 649-9 (공중화장실),37.495695 ,127.068565 ,1,,
늘벗근린공원,서울특별시 강남구 대치동501 (공중화장실),37.506604 ,127.058665 ,1,,
대청근린공원,서울특별시 강남구 일원동621 (공중화장실),37.506090 ,127.058943 ,1,,
대진근린공원,서울특별시 강남구 개포동 13-1 (공중화장실),37.506844 ,127.059463 ,1,,
한솔근린공원,서울특별시 강남구 일원동 732 (공중화장실),37.506562 ,127.059722 ,1,,
학여울근린공원화장실,서울특별시 개포로 509 (공중화장실),37.507427 ,127.059756 ,1,,
늘푸린근린공원,서울특별시 강남구 일원동690 (공중화장실),37.507591 ,127.060579 ,1,,
탄천근린공원,서울특별시 강남구 수서동722 (공중화장실),37.507905 ,127.061344 ,1,,
신사근린공원,서울특별시 강남구 압구정동422 (공중화장실),37.507028 ,127.061684 ,1,,
은마종합상가,서울특별시 삼성로 212 (개방화장실),37.508038 ,127.062796 ,1,,
은마종합상가 편의동,서울특별시 삼성로 212 (개방화장실),37.507635 ,127.063150 ,1,,
극동교회,서울특별시 삼성로 150 (개방화장실),37.505242 ,127.064346 ,1,,
미도종합상가,서울특별시 삼성로 150 (개방화장실),37.506731 ,127.062387 ,1,,
양지빌딩,서울특별시 테헤란로84길 9 (개방화장실),37.502962 ,127.059802 ,1,,
영광빌딩,서울특별시 테헤란로84길 17 (개방화장실),37.503980 ,127.062344 ,1,,
메트로칸 오피스텔,서울특별시 테헤란로88길 10 (개방화장실),37.501103 ,127.064461 ,1,,
신도빌딩,서울특별시 테헤란로88길 14 (개방화장실),37.499740 ,127.061868 ,1,,
삼흥2빌딩,서울특별시 테헤란로 514 (개방화장실),37.499181 ,127.062988 ,1,,
섬유센터,서울특별시 테헤란로 518 (개방화장실),37.499555 ,127.063898 ,1,,
홍우빌딩,서울특별시 테헤란로 522 (개방화장실),37.500292 ,127.066535 ,1,,
대치3차 아이파크,서울특별시 영동대로85길 20 (개방화장실),37.500049 ,127.067184 ,1,,
글라스타워,서울특별시 테헤란로 534 (개방화장실),37.506584 ,127.065327 ,1,,
세아빌딩,서울특별시 영동대로 429 (개방화장실),37.507124 ,127.066993 ,1,,
기아오토큐 대치점,서울특별시 역삼로 559 (개방화장실),37.502683 ,127.067162 ,1,,
대한민국,서울특별시 영동대로85길17-5 (개방화장실),37.503353 ,127.049876 ,1,,
대치동교회,서울특별시 역삼로84길 8 (개방화장실),37.505098 ,127.052223 ,1,,
신사에스엔지(구 신사제2빌딩),서울특별시 역삼로 542 (개방화장실),37.505145 ,127.052558 ,1,,
동성빌딩 강산애,서울특별시 삼성로64길 51 (개방화장실),37.504402 ,127.053296 ,1,,
서울베다니 교회,서울특별시 삼성로62길 14 (개방화장실),37.505815 ,127.056131 ,1,,
삼성상가,서울특별시 도곡로 516 (개방화장실),37.504599 ,127.056187 ,1,,
명가원,서울특별시 도곡로526 (개방화장실),37.504562 ,127.055232 ,1,,
천주교 서울대교구 대치2동성당,서울특별시 도곡로 540 (개방화장실),37.501426 ,127.059074 ,1,,
은마 주유소,서울특별시 영동대로 235 (개방화장실),37.505602 ,127.049163 ,1,,
코스모타워(KT&G),서울특별시 영동대로 416 (개방화장실),37.505393 ,127.050109 ,1,,
동일타워,서울특별시 테헤란로114길 38 (개방화장실),37.505360 ,127.050387 ,1,,
새마을운동중앙회,서울특별시 영동대로 316 (개방화장실),37.505494 ,127.050863 ,1,,
세한889타워,서울특별시 선릉로 428 (개방화장실),37.505870 ,127.052180 ,1,,
다봉타워빌딩,서울특별시 테헤란로 418 (개방화장실),37.506222 ,127.053060 ,1,,
메이플빌딩,서울특별시 테헤란로 420 (개방화장실),37.507691 ,127.054978 ,1,,
㈜동산빌딩 동산빌딩점,서울특별시 테헤란로 70길 16 (개방화장실),37.507985 ,127.055224 ,1,,
포스코,서울특별시 테헤란로 440 (개방화장실),37.507317 ,127.055632 ,1,,
롯데캐슬상가,서울특별시 삼성로85길 11 (개방화장실),37.467283 ,127.119006 ,1,,
충무성결교회,서울특별시 삼성로85길 25 (개방화장실),37.466557 ,127.119065 ,1,,
센트럴 주유소,서울특별시 삼성로 335 (개방화장실),37.467272 ,127.118743 ,1,,
성원타워,서울특별시 선릉로 514 (개방화장실),37.465951 ,127.109040 ,1,,
이케이타워,서울특별시 테헤란로 407 (개방화장실),37.466419 ,127.109149 ,1,,
동신빌딩,서울특별시 테헤란로 409 (개방화장실),37.467646 ,127.098754 ,1,,
성담빌딩,서울특별시 테헤란로 411 (개방화장실),37.463182 ,127.102956 ,1,,
삼성금융플라자,서울특별시 테헤란로 419 (개방화장실),37.466473 ,127.097795 ,1,,
현대타워,서울특별시 테헤란로 423 (개방화장실),37.474998 ,127.106870 ,1,,
송현빌딩,서울특별시 테헤란로79길 13 (개방화장실),37.474752 ,127.107034 ,1,,
채널리저브,서울특별시 삼성로 517 (개방화장실),37.483534 ,127.104012 ,1,,
제이에스타워,서울특별시 테헤란로79길 6 (개방화장실),37.476489 ,127.105340 ,1,,
㈜광연자동차 운전전문학원,서울특별시 헌릉로733 (개방화장실),37.474870 ,127.103576 ,1,,
GS칼텍스㈜산성주유소,서울특별시 헌릉로 730 (개방화장실),37.474469 ,127.103972 ,1,,
세곡주유소,서울특별시 헌릉로 731 (개방화장실),37.484031 ,127.094990 ,1,,
강남제일교회,서울특별시 헌릉로637길 12 (개방화장실),37.488024 ,127.101845 ,1,,
송파농협 세곡동지점,서울특별시 헌릉로 637길 22 (개방화장실),37.488559 ,127.104471 ,1,,
엔젤리안,서울특별시 헌릉로571길 56-1 (개방화장실),37.485766 ,127.097263 ,1,,
세곡해성빌딩,서울특별시 헌릉로570길 30 (개방화장실),37.516856 ,127.019798 ,1,,
위시존 강남점,서울특별시 헌릉로569길 39-5 (개방화장실),37.522889 ,127.020600 ,1,,
방죽주유소,서울특별시 밤고개로 215 (개방화장실),37.518247 ,127.023714 ,1,,
강남블루지움,서울특별시 밤고개로 219 (개방화장실),37.518866 ,127.025225 ,1,,
자곡주유소,서울특별시 밤고개로 120 (개방화장실),37.525565 ,127.026049 ,1,,
강남복지충전소,서울특별시 밤고개로 200 (개방화장실),37.525830 ,127.026526 ,1,,
강남푸르지오시티1차,서울특별시 자곡로 191 (개방화장실),37.524741 ,127.019644 ,1,,
강남푸르지오시티2차,서울특별시 자곡로 192 (개방화장실),37.524038 ,127.028731 ,1,,
주)중앙에너비스수서지점,서울특별시 광평로 202 (개방화장실),37.525322 ,127.028865 ,1,,
수서현대벤처빌,서울특별시 밤고개로1길 10 (개방화장실),37.502716 ,126.940827 ,1,,
사이룩스오피스텔(동관동),서울특별시 광평로 295 (개방화장실),37.512528 ,126.939942 ,1,,
사이룩스오피스텔(서관동),서울특별시 광평로 295 (개방화장실),37.514531 ,126.952430 ,1,,
동익아파트 상가,서울특별시 광평로39길 3 (개방화장실),37.479136 ,126.981346 ,1,,
신사미타워,서울특별시 강남대로 616 (개방화장실),37.513407 ,126.943958 ,1,,
덕산빌딩,서울특별시 압구정로 108 (개방화장실),37.493472 ,126.956435 ,1,,
제이타워,서울특별시 도산대로 139 (개방화장실),37.483120 ,126.981531 ,1,,
안테룸 호텔,서울특별시 도산대로 153 (개방화장실),37.505067 ,126.943799 ,1,,
극동스포츠빌딩,서울특별시 압구정로 152 (개방화장실),37.506863 ,126.968163 ,1,,
㈜새서울석유,서울특별시 압구정로 154 (개방화장실),37.512301 ,126.941994 ,1,,
미성(아)상가,서울특별시 압구정로 113-22 (개방화장실),37.508517 ,126.937357 ,1,,
압구정빌딩,서울특별시 논현로 842 (개방화장실),37.498101 ,126.953081 ,1,,
ANDAZ(지하층),서울특별시 논현로 854 (개방화장실),37.505468 ,126.942301 ,1,,
동작관악교육지원청,서울특별시 동작구 장승배기로10가길 35 (개방화장실),37.499126 ,126.931404 ,1,,
동작구의회,서울특별시 동작구 장승배기로 161 (공중화장실),37.499375 ,126.941401 ,1,,
간이화장실_노들나루공원,서울특별시 동작구 노량진로 247 (공중화장실),37.505777 ,126.966593 ,1,,
노들나루공원,서울특별시 동작구 노량진로 247 (공중화장실),37.483072 ,126.978773 ,1,,
"간이화장실_현충근린공원(동작동,정금)",서울특별시 동작구 동작대로 29 (공중화장실),37.488712 ,126.979253 ,1,,
"간이화장실_현충근린공원(사당동,상록)",서울특별시 동작구 동작대로 29 (공중화장실),37.484512 ,126.973481 ,1,,
한주실업빌딩(이그잼),서울 동작구 노량진로 162 (개방화장실),37.480976 ,126.971634 ,1,,
현대오일뱅크동작주유소,서울 동작구 상도로 403 (개방화장실),37.485663 ,126.966979 ,1,,
현대오일뱅크사당셀프주유소개방화장실,서울 동작구 동작대로 73 (개방화장실),37.508154 ,126.926323 ,1,,
현대자동차정비,서울 동작구 상도로 226 (개방화장실),37.488945 ,126.910039 ,1,,
블루스톤스포츠,서울시 동작구 현충로 131 (개방화장실),37.498413 ,126.924544 ,1,,
노량진1동주민센터,서울특별시 동작구 장승배기로28길30 (공중화장실),37.488375 ,126.977588 ,1,,
노량진2동 주민센터,서울특별시 동작구 장승배기로19길 48 (공중화장실),37.478888 ,126.973244 ,1,,
상도1동 주민센터,서울특별시 동작구 상도로53길 9 (공중화장실),37.509205 ,126.943432 ,1,,
상도2동주민센터,서울특별시 동작구 상도로 211 (공중화장실),37.503025 ,126.925223 ,1,,
상도3동 주민센터,서울특별시 동작구 성대로2길 11 (공중화장실),37.505714 ,126.933419 ,1,,
상도4동주민센터,서울특별시 동작구 양녕로27길 44 (공중화장실),37.510534 ,126.956890 ,1,,
흑석동 주민센터,서울특별시 동작구 흑석한강로 11 (공중화장실),37.509926 ,126.930425 ,1,,
사당1동 주민센터,서울특별시 동작구 동작대로17길 28 (공중화장실),37.493121 ,126.976876 ,1,,
사당2동 주민센터,서울특별시 동작구 동작대로29길 52 (공중화장실),37.483272 ,126.971454 ,1,,
사당3동 주민센터(임시청사),서울특별시 동작구 사당로17길 31 (공중화장실),37.502498 ,126.949659 ,1,,
사당4동 주민센터,서울특별시 동작구 사당로16아길 6 (공중화장실),37.497982 ,126.922000 ,1,,
사당5동 주민센터,서울특별시 동작구 사당로2가길 219 (공중화장실),37.492433 ,126.936978 ,1,,
대방동주민센터,서울특별시 동작구 여의대방로44길 20 (공중화장실),37.498099 ,126.938414 ,1,,
신대방1동주민센터,서울특별시 동작구 신대방길 72 (공중화장실),37.491494 ,126.955291 ,1,,
신대방2동주민센터,서울특별시 동작구 여의대방로24길 76 (공중화장실),37.503067 ,126.977937 ,1,,
동작샘터도서관,서울 동작구 동작대로29길 63-26 (공중화장실),37.504999 ,126.974722 ,1,,
다울작은도서관,서울 동작구 사당로20길 132 (공중화장실),37.513678 ,126.946928 ,1,,
동작어린이도서관,서울특별시 동작구 장승배기로 16길 98 (공중화장실),37.511254 ,126.961626 ,1,,
대방어린이도서관,서울특별시 동작구 대방동길 55 (공중화장실),37.508759 ,126.954244 ,1,,
동작종합사회복지관,서울특별시 동작구 등용로 47 (공중화장실),37.494687 ,126.959431 ,1,,
본동종합사회복지관,서울특별시 동작구 노량진로32길 79 (공중화장실),37.503878 ,126.950211 ,1,,
대방종합사회복지관,서울특별시 동작구 여의대방로44길 47 (공중화장실),37.499238 ,126.960884 ,1,,
동작이수사회복지관,서울특별시 동작구 동작대로35차길 7 (공중화장실),37.499126 ,126.984275 ,1,,
사당종합사회복지관,서울특별시 동작구 사당로14길 20 (공중화장실),37.482634 ,126.968203 ,1,,
상도종합사회복지관,서울특별시 동작구 상도로39가길 7 (공중화장실),37.486526 ,126.910140 ,1,,
참새공원 공중화장실,서울 동작구 여의대방로24길 29 (공중화장실),37.512231 ,126.925770 ,1,,
사자암 공중화장실,서울 동작구 상도동 280 (공중화장실),37.513195 ,126.941196 ,1,,
국사봉 공중화장실,서울 동작구 상도동 산65-49 (공중화장실),37.487084 ,126.905639 ,1,,
상도근린공원 공중화장실,서울 동작구 상도동 산57-64 (공중화장실),37.508100 ,126.965239 ,1,,
주차공원 공중화장실,서울 동작구 현충로 220 (공중화장실),37.484935 ,126.969896 ,1,,
현충원 공중화장실,서울 동작구 동작동 산45-1 (공중화장실),37.494936 ,126.961446 ,1,,
사육신 공중화장실,서울 동작구 노량진동 153-18 (공중화장실),37.512969 ,126.937003 ,1,,
효사정 공중화장실,서울 동작구 흑석동 172-2 (공중화장실),37.488703 ,126.981970 ,1,,
본동 공중화장실,서울 동작구 본동 126-449 (공중화장실),37.488064 ,126.979151 ,1,,
절고개 공중화장실,서울 동작구 상도동 508 (공중화장실),37.505736 ,126.922881 ,1,,
상도1동 공중화장실,서울 동작구 상도로41가길 19 (공중화장실),37.501853 ,126.934909 ,1,,
달마사 공중화장실,서울 동작구 흑석동 산60-8 (공중화장실),37.499364 ,126.928763 ,1,,
이수교 공중화장실,서울 동작구 동작동 86-6 (공중화장실),37.513433 ,126.943538 ,1,,
사당5동 공중화장실,서울 동작구 사당동 712-5 (공중화장실),37.502863 ,126.935182 ,1,,
도림천 공중화장실,서울 동작구 신대방동 702-8 (공중화장실),37.498361 ,126.951389 ,1,,
CJ푸드빌빕스대방점,서울 동작구 노량진로 2 (개방화장실),37.479618 ,126.981357 ,1,,
KT빌딩,서울 동작구 노량진로 138 (개방화장실),37.507072 ,126.945718 ,1,,
sk네트워크 21세기주유소,서울 동작구 시흥대로 616 (개방화장실),37.508403 ,126.926469 ,1,,
sk네트워크 흑석동주유소,서울 동작구 현충로 101 (개방화장실),37.489238 ,126.982053 ,1,,
거묵프리미엄상가,서울 동작구 사당로 196 (개방화장실),37.492260 ,126.909960 ,1,,
금성주유소,서울 동작구 사당로 59 (개방화장실),37.512758 ,126.934027 ,1,,
기독교TV멀티미디어센터,서울 동작구 노량진로 100 (개방화장실),37.507948 ,126.939337 ,1,,
남성주유소,서울 동작구 동작대로 135 (개방화장실),37.506038 ,126.960422 ,1,,
남일교회,서울 동작구 동작대로27길 57 (개방화장실),37.507142 ,126.940241 ,1,,
대방주유소,서울 동작구 여의대방로 214 (개방화장실),37.509857 ,126.924954 ,1,,
동광교회,서울 동작구 성대로1길 26 (개방화장실),37.478309 ,126.980959 ,1,,
동일석유(주)동주충전소,서울 동작구 상도로 74 (개방화장실),37.496999 ,126.930009 ,1,,
맥도날드(주),서울 동작구 노량진로 158 (개방화장실),37.507830 ,126.947263 ,1,,
믿음가득 매일주유소,서울 동작구 상도로 139 (개방화장실),37.493882 ,126.922660 ,1,,
살피재주유소,서울 동작구 상도로 334 (개방화장실),37.480469 ,126.973101 ,1,,
삼성생명 사당빌딩,서울 동작구 동작대로 35 (개방화장실),37.492806 ,126.969743 ,1,,
신동아리버파크상가,서울 동작구 만양로 19 (개방화장실),37.484717 ,126.969613 ,1,,
열림교회,서울 동작구 여의대방로44길 22 (개방화장실),37.508505 ,126.961938 ,1,,
오송빌딩,서울 동작구 동작대로 141 (개방화장실),37.500183 ,126.933686 ,1,,
우성스포츠센터,서울 동작구 여의대방로 2 (개방화장실),37.494720 ,126.916768 ,1,,
유한양행,서울 동작구 노량진로 74 (개방화장실),37.510055 ,126.963446 ,1,,
장성빌딩,서울 동작구 장승배기로 113 (개방화장실),37.487336 ,126.974411 ,1,,
중앙대학교병원,서울 동작구 흑석로 102 (개방화장실),37.499824 ,126.978408 ,1,,
청화병원,서울 동작구 장승배기로 108 (개방화장실),37.504446 ,126.941088 ,1,,
하늘마루타운상가,서울 동작구 알마타길 6 (개방화장실),37.494892 ,126.919491 ,1,,
한국전력 관악동작지사,서울특별시 동작구 동작대로 19 (공중화장실),37.513574 ,126.940827 ,1,,
상도3동 청소년독서실,서울특별시 동작구 국사봉2나길 25 (공중화장실),37.512779 ,126.953064 ,1,,
노량진1동 청소년독서실,서울특별시 동작구 만양로3길 8 (공중화장실),37.509085 ,126.963570 ,1,,
동작구민회관,서울특별시 동작구 보라매로5길 28 (공중화장실),37.503067 ,126.977937 ,1,,
동작구시설관리공단,서울특별시 동작구 보라매로5길 28 (공중화장실),37.476114 ,126.973389 ,1,,
사당4동 청소년 독서실,서울특별시 동작구 사당로22나길 71 (공중화장실),37.487550 ,126.912960 ,1,,
사당종합체육관,서울특별시 동작구 사당로27길 232 (공중화장실),37.502861 ,126.979986 ,1,,
사당문화회관,서울특별시 동작구 사당로8길 9 (공중화장실),37.488072 ,126.982279 ,1,,
흑석 청소년독서실,서울특별시 동작구 서달로13길 17 (공중화장실),37.476863 ,126.981595 ,1,,
상도4동 청소년독서실,서울특별시 동작구 성대로11길 67 (공중화장실),37.485543 ,126.981887 ,1,,
상도스포츠클럽,서울특별시 동작구 성대로2길 11 (공중화장실),37.484737 ,126.971116 ,1,,
동작구민체육센터,서울특별시 동작구 여의대방로16길 53 (공중화장실),37.495826 ,126.954053 ,1,,
흑석체육센터,서울특별시 동작구 현충로 73 (공중화장실),37.503518 ,126.947287 ,1,,
동작삼일수영장,서울특별시 동작구 사당로27길 103 (공중화장실),37.504319 ,126.938094 ,1,,
국립서울현충원 민원안내실,서울특별시 동작구 현충로 210 (공중화장실),37.499653 ,126.927707 ,1,,
국립서울현충원 만남의집,서울특별시 동작구 현충로 210 (공중화장실),37.499273 ,126.920337 ,1,,
국립서울현충원 충혼당,서울특별시 동작구 현충로 210 (공중화장실),37.492415 ,126.915401 ,1,,
국립서울현충원 봉안식장,서울특별시 동작구 현충로 210 (공중화장실),37.505236 ,126.946433 ,1,,
동작구청,서울특별시 동작구 장승배기로 161 (공중화장실),37.508325 ,126.953767 ,1,,
동작문화복지센터,서울특별시 동작구 장승배기로10길 42 (공중화장실),37.480302 ,126.967732 ,1,,
중앙화장실,서울특별시 동작구 여의대방로20길33 (공중화장실),37.492815 ,126.965819 ,1,,
노량진역,서울특별시 동작구 노량진로 지하130 (공중화장실),37.499815 ,126.935192 ,1,,
노들역,서울특별시 동작구 노량진로 지하238 (공중화장실),37.492436 ,126.943323 ,1,,
흑석(중앙대입구)역,서울특별시 동작구 현충로 지하90 (공중화장실),37.507752 ,126.926736 ,1,,
동작(1),서울특별시 동작구 현충로 지하220 (공중화장실),37.510853 ,126.929588 ,1,,
사당역(2),서울특별시 동작구 사당동 1129 (공중화장실),37.506898 ,126.935784 ,1,,
신대방역(2),서울특별시 동작구 신대방동 643-1 (공중화장실),37.482293 ,126.962385 ,1,,
동작역(4),서울특별시 동작구 동작동 327-1 (공중화장실),37.500390 ,126.929110 ,1,,
총신대입구역(4),서울특별시 동작구 사당동 736-1 (공중화장실),37.477017 ,126.979852 ,1,,
사당역(4),서울특별시 동작구 사당동 588-4 (공중화장실),37.511604 ,126.957220 ,1,,
이수역(7),서울특별시 동작구 사당동 144-4 (공중화장실),37.505474 ,126.949967 ,1,,
남성역(7),서울특별시 동작구 사당동 산 25-33 (공중화장실),37.505120 ,126.960611 ,1,,
숭실대입구역(7),서울특별시 동작구 상도동 514 (공중화장실),37.497885 ,126.947456 ,1,,
상도역(7),서울특별시 동작구 상도1동 702-1 (공중화장실),37.484081 ,126.967351 ,1,,
장승배기역(7),서울특별시 동작구 상도동 26-20 (공중화장실),37.498764 ,126.939841 ,1,,
보라매공원 놀이터,서울특별시 동작구 신대방동 395,37.490791 ,126.919295 ,2,,
24시청담우리동물병원,서울특별시 강남구 삼성동 70-6,37.514489 ,127.052856 ,3,,
SNC동물메디컬센터,서울특별시 강남구 역삼동 727-8,37.497425 ,127.038921 ,3,,
우쭈쭈 케어센터,서울특별시 강남구 역삼동 725-29 우쭈쭈 케어센터,37.499921 ,127.040517 ,3,,
아이윌24시 동물병원,서울특별시 강남구 청담동 47,37.519650 ,127.049193 ,3,,
VIP동물의료센터,서울특별시 강남구 청담동 46,37.519441 ,127.049030 ,3,,
논현동물병원 24시,서울특별시 강남구 논현동 59-5,37.519634 ,127.029023 ,3,,
디아동물병원,서울특별시 강남구 개포동 158-8 2층,37.482775 ,127.062217 ,3,,
튼튼동물병원,서울특별시 강남구 압구정동 426,37.526223 ,127.024479 ,3,,
순수동물병원,서울특별시 강남구 논현동 149-6,37.510791 ,127.027862 ,3,,
닥터박동물병원,서울특별시 강남구 역삼동 641-10 1층,37.502550 ,127.035717 ,3,,
우리동생 동물병원 청담점,서울특별시 강남구 청담동 76-12 라테라스 청담 1층 우리동생 동물병원 청담점,37.519738 ,127.050492 ,3,,
얼바인동물병원,서울특별시 강남구 자곡동 670 강남센터뷰오피스텔 1층 103호,37.474426 ,127.107108 ,3,,
다랑동물병원,"서울특별시 강남구 개포동 1281 디에이치아너힐즈 상가 103호, 104호",37.483988 ,127.067392 ,3,,
강남25시동물병원,서울특별시 강남구 논현동 90-6,37.515597 ,127.035016 ,3,,
동물치과병원메이,서울특별시 강남구 역삼동 827-67 2층,37.495862 ,127.032227 ,3,,
하나카동물병원,서울특별시 강남구 역삼동 834-45,37.494226 ,127.034710 ,3,,
아이힐동물병원,서울특별시 강남구 역삼동 838-9 거암빌딩 2층,37.490231 ,127.032990 ,3,,
메이트 동물병원,서울특별시 강남구 신사동 660-7,37.528206 ,127.037822 ,3,,
놀로스퀘어,서울특별시 강남구 청담동 46 놀로스퀘어,37.510488 ,127.024898 ,3,,
와이즈동물병원,서울특별시 강남구 논현동 139-32,37.472023 ,127.096006 ,3,,
퍼스트동물의료센터,서울특별시 강남구 자곡동 636 서강프라자 2층 201호,37.499416 ,127.063445 ,3,,
대치동물메디컬센터,서울특별시 강남구 대치동 990-1,37.493606 ,127.059700 ,3,,
대치성심동물병원,서울특별시 강남구 대치동 623 1층 69-1호,37.488673 ,127.052102 ,3,,
닥터그레이 동물병원,서울특별시 강남구 도곡동 467-7 아카데미스위트 A동 1층 104-1호,37.490972 ,127.087511 ,3,,
임재성동물의료센터,"서울특별시 강남구 일원동 645-11 1층, 지층",37.479167 ,127.049131 ,3,,
나은동물병원,서울특별시 강남구 개포동 1259-4,37.474233 ,127.049820 ,3,,
한동물병원 개포점,서울특별시 강남구 개포동 1187-1 1층,37.506870 ,127.046757 ,3,,
선릉동물병원,서울특별시 강남구 역삼동 694-11 1층 선릉동물병원,37.516498 ,127.059487 ,3,,
중앙동물메디컬센터,서울특별시 강남구 삼성동 90-8 1~4층,37.465782 ,127.101191 ,3,,
마더스동물병원,서울특별시 강남구 세곡동 581,37.525270 ,126.859465 ,3,,
신정동물병원,서울특별시 양천구 신정동 987-3,37.524504 ,127.052759 ,3,,
청담리덴 동물치과병원,서울특별시 강남구 청담동 52-6 3층,37.474736 ,127.104818 ,3,,
힐스타동물병원,서울특별시 강남구 자곡동 658 강남힐스테이트에코,37.524282 ,127.044755 ,3,,
이리온동물병원,서울특별시 강남구 청담동 97-1,37.531976 ,127.028563 ,3,,
신사동물병원,서울특별시 강남구 논현동 59-5,37.492431 ,127.040017 ,3,,
봄사랑동물병원,서울특별시 강남구 압구정동 455 주구센타 제1호내 203호,37.520727 ,127.029980 ,3,,
예은동물병원,서울특별시 강남구 역삼동 798-20 1층,37.492711 ,127.057748 ,3,,
스마트 동물병원 신사본원,서울특별시 강남구 신사동 587-13,37.502253 ,127.050318 ,3,,
래이동물의료센터,서울특별시 강남구 대치동 649,37.508973 ,127.026685 ,3,,
스마트 동물병원,서울특별시 강남구 대치동 898 갑신빌딩 1층,37.495579 ,127.049810 ,3,,
커비동물병원,서울특별시 강남구 논현동 159-23,37.523866 ,127.039619 ,3,,
OK동물병원,서울특별시 강남구 역삼동 766-20 1층 OK동물병원,37.525156 ,127.052625 ,3,,
이안동물의학센터,서울특별시 강남구 청담동 86 킹콩빌딩 5층,37.493166 ,127.035430 ,3,,
청담눈초롱안과동물병원,서울특별시 강남구 청담동 125-12,37.515138 ,127.042653 ,3,,
츄츄동물병원,서울특별시 강남구 역삼동 834-66 이루미빌딩 1층,37.522381 ,127.035174 ,3,,
강남예치과동물병원,서울특별시 강남구 삼성동 9-5 2층,37.522266 ,127.039668 ,3,,
치료멍멍동물병원 신사본원,"서울특별시 강남구 신사동 630-23 삼공빌딩 2, 3층",37.497090 ,127.042203 ,3,,
이리온동물병원,서울특별시 강남구 청담동 97-1,37.490812 ,127.075204 ,3,,
이비치동물치과병원,서울특별시 강남구 청담동 1-18 대성빌딩 2층,37.521202 ,127.027746 ,3,,
드림 동물병원,서울특별시 강남구 역삼2동 771 뉴튼프라자 101호,37.476443 ,127.046319 ,3,,
나리울 동물병원,서울특별시 강남구 일원동 743,37.528662 ,127.032554 ,3,,
에이드동물병원,"서울특별시 강남구 신사동 586-3 1F, B1F",37.506697 ,127.040866 ,3,,
개포별빛동물병원,서울특별시 강남구 개포동 1229-11 동성빌딩 1층,37.522920 ,127.020579 ,3,,
압구정동물의료센터,서울특별시 강남구 신사동 617 1층 103호,37.497581 ,127.042141 ,3,,
서울동물심장병원,서울특별시 강남구 역삼동 689-2,37.491334 ,127.038477 ,3,,
압구정웰동물병원,"서울특별시 강남구 신사동 528-3 덕산빌딩 105호, 203호",37.484819 ,126.979628 ,3,,
위너스동물병원,서울특별시 강남구 역삼동 732-26,37.499716 ,126.922252 ,3,,
동물병원 다온,서울특별시 강남구 도곡동 545-6 동물병원다온,37.505187 ,126.946142 ,3,,
펫트너건강검진센터,서울특별시 강남구 역삼동 725-29,37.504391 ,126.949396 ,3,,
굿파파 24시,서울특별시 동작구 사당동 148-9,37.500029 ,126.950741 ,3,,
보라매 웰 종합 동물병원,서울특별시 동작구 대방동 401-21 MGI빌딩 1층,37.505034 ,126.942383 ,3,,
지엔동물병원,서울특별시 동작구 상도동 22-151 지엔동물병원,37.500016 ,126.925465 ,3,,
품 동물의료센터,서울특별시 동작구 상도1동 623 1층,37.477121 ,126.976704 ,3,,
정겨운동물병원,서울특별시 동작구 상도1동 261,37.487676 ,126.975552 ,3,,
유케어종합동물병원,서울특별시 동작구 상도동 27-12 성은빌딩,37.484930 ,126.969897 ,3,,
갤러리아(EAST점) 도로변(횡단보도 포함),서울특별시 강남구 압구정동 515,37.528081 ,127.041569 ,4,,
갤러리아(WEST점) 도로변(횡단보도 포함),서울특별시 강남구 압구정동 394,37.528088 ,127.029991 ,4,,
"갤러리아(생활관) 정류소(버스, 택시 등)",서울특별시 강남구 압구정동 494,37.528562 ,127.040055 ,4,,
한양아파트 35동 도로변(횡단보도 포함),서울특별시 강남구 압구정동 489,37.529156 ,127.038167 ,4,,
"한양아파트 61동 정류소(버스, 택시 등)",서울특별시 강남구 압구정동 485,37.529578 ,127.036766 ,4,,
현대아파트 91동 도로변(횡단보도 포함),서울특별시 강남구 압구정동 482,37.529928 ,127.034867 ,4,,
"현대아파트 84동 정류소(버스, 택시 등)",서울특별시 강남구 압구정동 458,37.529660 ,127.030830 ,4,,
압구정역 1번출구 지하철역 입구,서울 강남구 압구정동 457,37.527859 ,127.029336 ,4,,
신현대아파트 103동 도로변(횡단보도 포함),서울 강남구 압구정동 426,37.526223 ,127.024479 ,4,,
현대아파트 101동 도로변(횡단보도 포함),서울 강남구 압구정동 426,37.526223 ,127.024479 ,4,,
신사중학교 도로변(횡단보도 포함),서울 강남구 압구정동 410,37.524341 ,127.021256 ,4,,
"신사중학교 정류소(버스, 택시 등)",서울 강남구 압구정동 410,37.524341 ,127.021256 ,4,,
미성2차 23동앞 도로변(횡단보도 포함),서울 강남구 압구정동 396,37.523065 ,127.018104 ,4,,
"덕산빌딩 정류소(버스, 택시 등)",서울 강남구 신사동 528-3,37.522920 ,127.020579 ,4,,
신사동사무소 도로변(횡단보도 포함),서울 강남구 신사동 548-1,37.524000 ,127.022742 ,4,,
"대일부동산 정류소(버스, 택시 등)",서울 강남구 신사동 574-3,37.525342 ,127.025339 ,4,,
압구정역 5번출구 지하철역 입구,서울 강남구 신사동 580-6,37.526659 ,127.027955 ,4,,
"소망부동산 정류소(버스, 택시 등)",서울 강남구 신사동 615-1,37.528059 ,127.031022 ,4,,
라움 도로변(횡단보도 포함),서울 강남구 신사동 617-3,37.528768 ,127.033199 ,4,,
대영부동산 도로변(횡단보도 포함),서울 강남구 신사동 638-5,37.528780 ,127.035286 ,4,,
"더블유 수약국 정류소(버스, 택시 등)",서울 강남구 신사동 639-1,37.528717 ,127.036008 ,4,,
우리은행 압구정로데오지점 도로변(횡단보도 포함),서울 강남구 신사동 638-13,37.528585 ,127.034303 ,4,,
"동서상가 정류소(버스, 택시 등)",서울 강남구 신사동 661-1,37.527922 ,127.038902 ,4,,
로데오역 6번출구 지하철역 입구,서울 강남구 신사동 664,37.527690 ,127.039854 ,4,,
CJ성형외과 도로변(횡단보도 포함),서울 강남구 청담동 78-16,37.527414 ,127.040978 ,4,,
"삼아약품 정류소(버스, 택시 등)",서울 강남구 청담동 80-18,37.526382 ,127.045095 ,4,,
버버리 코리아 도로변(횡단보도 포함),서울 강남구 청담동 98-8,37.524479 ,127.046744 ,4,,
"미니스톱(청수빌딩) 정류소(버스, 택시 등)",서울 강남구 청담동 124-4,37.524797 ,127.049168 ,4,,
탐앤탐스 청담점 도로변(횡단보도 포함),서울 강남구 도산대로89길 3,37.525057 ,127.050197 ,4,,
밀레 도로변(횡단보도 포함),서울 강남구 청담동 91-2,37.523869 ,127.041628 ,4,,
국민은행 학동사거리점 도로변(횡단보도 포함),서울 강남구 신사동 666-11,37.523772 ,127.038928 ,4,,
"쉐이크쉑 청담점 정류소(버스, 택시 등)",서울 강남구 신사동 652-16,37.523117 ,127.037587 ,4,,
바카라(313빌딩) 도로변(횡단보도 포함),서울 강남구 신사동 630-31,37.522501 ,127.035530 ,4,,
한성모터스(학빌딩) 도로변(횡단보도 포함),서울 강남구 신사동 629-24,37.521751 ,127.033357 ,4,,
"마세라티 강남전시장 정류소(버스, 택시 등)",서울 강남구 신사동 588-21,37.520838 ,127.030548 ,4,,
바른약국 도로변(횡단보도 포함),서울 강남구 신사동 561-31,37.519029 ,127.025627 ,4,,
"KT 신사점 정류소(버스, 택시 등)",서울 강남구 신사동 514-10,37.517620 ,127.022337 ,4,,
신사역 8번출구 지하철역 입구,서울 강남구 신사동 513-4,37.517012 ,127.020848 ,4,,
신사역 7번출구 지하철역 입구,서울 강남구 신사동 501-2,37.516774 ,127.020078 ,4,,
신사역 2번출구 지하철역 입구,서울 강남구 논현동 1,37.515862 ,127.020188 ,4,,
신사역 1번출구 지하철역 입구,서울 강남구 논현동 2-15,37.516371 ,127.021270 ,4,,
"청호빌딩 정류소(버스, 택시 등)",서울 강남구 논현동 3-2,37.516738 ,127.021880 ,4,,
애플(페이토빌딩) 도로변(횡단보도 포함),서울 강남구 논현동 5-1,37.517326 ,127.023420 ,4,,
을지병원 도로변(횡단보도 포함),서울 강남구 논현동 59,37.519411 ,127.028585 ,4,,
에이스침대 도로변(횡단보도 포함),서울 강남구 논현동 61,37.520238 ,127.030798 ,4,,
아우디 도산대로전시장 도로변(횡단보도 포함),서울 강남구 논현동 91-3,37.521388 ,127.034923 ,4,,
"신한은행 도산대로지점 정류소(버스, 택시 등)",서울 강남구 논현동 92,37.522016 ,127.036349 ,4,,
삼성 도로변(횡단보도 포함),서울 강남구 논현동 94-2,37.522702 ,127.038875 ,4,,
포르쉐스튜디오 도로변(횡단보도 포함),서울 강남구 청담동 3,37.523018 ,127.041996 ,4,,
"SSG푸드마켓 청담점 정류소(버스, 택시 등)",서울 강남구 청담동 4-1,37.523394 ,127.043658 ,4,,
보테가라운지 도로변(횡단보도 포함),서울 강남구 청담동 48,37.523947 ,127.047816 ,4,,
청담빌딩 도로변(횡단보도 포함),서울 강남구 청담동 52,37.524180 ,127.051051 ,4,,
"스타벅스 청담점 정류소(버스, 택시 등)",서울 강남구 청담동 52-1,37.524353 ,127.051588 ,4,,
프리마호텔 도로변(횡단보도 포함),서울 강남구 청담동 52-3,37.524282 ,127.052261 ,4,,
"세븐일레븐 청담루나점 정류소(버스, 택시 등)",서울 강남구 청담동 72-3,37.520081 ,127.055952 ,4,,
진흥아파트 5동 앞 지하철역 입구,서울 강남구 청담동 73,37.519918 ,127.053868 ,4,,
청담역 11번출구 지하철역 입구,서울 강남구 청담동 75-1,37.519506 ,127.051681 ,4,,
청담역 10번출구 지하철역 입구,서울 강남구 청담동 75-1,37.519506 ,127.051681 ,4,,
"강남세무서 정류소(버스, 택시 등)",서울 강남구 청담동 45,37.518728 ,127.047085 ,4,,
"삼성아파트 101동 앞 정류소(버스, 택시 등)",서울 강남구 청담동 42,37.517916 ,127.042754 ,4,,
강남구청역 4번출구 지하철역 입구,서울 강남구 청담동 41-2,37.517570 ,127.041488 ,4,,
강남구청역 3번출구 지하철역 입구,서울 강남구 논현동 119,37.517449 ,127.040634 ,4,,
"T-WORLD(HOSIG 타워) 정류소(버스, 택시 등)",서울 강남구 논현동 118-16,37.517061 ,127.039925 ,4,,
바나프레소 세관사거리점 도로변(횡단보도 포함),서울 강남구 논현동 115-13,37.515810 ,127.035743 ,4,,
"서울제이에스병원 정류소(버스, 택시 등)",서울특별시 강남구 논현동 90-7,37.515527 ,127.034671 ,4,,
논현2동 파출소 도로변(횡단보도 포함),서울 강남구 논현동 89-13,37.515208 ,127.033847 ,4,,
학동역9번 출구 지하철역 입구,서울 강남구 논현동 88-9,37.514704 ,127.032041 ,4,,
학동역6번 출구 지하철역 입구,서울 강남구 논현동 58-9,37.514095 ,127.030017 ,4,,
"삼익뮤직프라자 정류소(버스, 택시 등)",서울 강남구 논현동 58-3,37.514131 ,127.029181 ,4,,
나뚜찌 도로변(횡단보도 포함),서울 강남구 논현동 56-22,37.512961 ,127.026552 ,4,,
"포레힐호텔 정류소(버스, 택시 등)",서울 강남구 논현동 54-4,37.512101 ,127.023632 ,4,,
논현역8번 출구 지하철역 입구,서울 서초구 잠원동 37-7,37.511584 ,127.020595 ,4,,
"영동가구(학동로106) 정류소(버스, 택시 등)",서울 강남구 논현동 121,37.511138 ,127.022596 ,4,,
학동역5번 출구 지하철역 입구,서울 강남구 논현동 129-1,37.513656 ,127.030490 ,4,,
학동역2번 출구 지하철역 입구,서울 강남구 논현동 208,37.513963 ,127.031851 ,4,,
학동역1번 출구 지하철역 입구,서울 강남구 논현동 208-7,37.514347 ,127.032992 ,4,,
쌍용자동차 강남논현전시장 도로변(횡단보도 포함),서울 강남구 논현동 238,37.515163 ,127.035747 ,4,,
"카페마스터 정류소(버스, 택시 등)",서울 강남구 논현동 238-10,37.515444 ,127.036437 ,4,,
"정관장 강남구청역점 정류소(버스, 택시 등)",서울 강남구 논현동 241-1,37.516553 ,127.040139 ,4,,
허브프라자 도로변(횡단보도 포함),서울 강남구 논현동 241-3,37.516687 ,127.040591 ,4,,
"서광아파트 101동앞 정류소(버스, 택시 등)",서울 강남구 삼성동 2,37.517030 ,127.042745 ,4,,
삼성월드 아파트 앞 도로변(횡단보도 포함),서울 강남구 삼성동 3-1,37.517433 ,127.044098 ,4,,
한솔아파트 101동 앞 도로변(횡단보도 포함),서울 강남구 삼성동 4-1,37.517682 ,127.045454 ,4,,
강남구청 도로변(횡단보도 포함),서울 강남구 삼성동 16-1,37.517569 ,127.047487 ,4,,
"강남구청 정류소(버스, 택시 등)",서울 강남구 삼성동 16-1,37.517569 ,127.047487 ,4,,
상아아파트1동(학동로446) 도로변(횡단보도 포함),서울 강남구 삼성동 189,37.517709 ,127.049865 ,4,,
청담역4번 출구 지하철역 입구,서울 강남구 삼성동 53-2,37.518714 ,127.052121 ,4,,
"청담불한증막 정류소(버스, 택시 등)",서울 강남구 청담동 44-12,37.518352 ,127.045964 ,4,,
삼성라테라스아파트 도로변(횡단보도 포함),서울특별시 강남구 봉은사로 645,37.515549 ,127.065798 ,4,,
삼성라테라스아파트 도로변(횡단보도 포함),서울특별시 강남구 봉은사로 645,37.515549 ,127.065798 ,4,,
미켈란107 도로변(횡단보도 포함),서울 강남구 삼성동 107,37.514886 ,127.060412 ,4,,
봉은사역 1번출구 도로변(횡단보도 포함),서울 강남구 삼성동 77-20,37.514342 ,127.059151 ,4,,
"GS25 봉은사점 정류소(버스, 택시 등)",서울 강남구 삼성동 77-23,37.514262 ,127.058658 ,4,,
봉은사 도로변(횡단보도 포함),서울특별시 강남구 봉은사로 531,37.515826 ,127.057735 ,4,,
더라빌입구 도로변(횡단보도 포함),서울 강남구 삼성동 73-1,37.514063 ,127.056366 ,4,,
더라빌입구 도로변(횡단보도 포함),서울 강남구 삼성동 73-1,37.514063 ,127.056366 ,4,,
국민은행 삼성중앙역지점 도로변(횡단보도 포함),서울 강남구 삼성동 51-2,37.513158 ,127.052685 ,4,,
"롯데슈퍼 봉은사로점 정류소(버스, 택시 등)",서울 강남구 봉은사로 471,37.512726 ,127.051240 ,4,,
"한국통신사업자 정류소(버스, 택시 등)",서울 강남구 삼성동 44-9,37.511613 ,127.047416 ,4,,
"삼성2동주민센터 정류소(버스, 택시 등)",서울 강남구 삼성동 38-34,37.511213 ,127.045984 ,4,,
"삼성2동주민센터 정류소(버스, 택시 등)",서울 강남구 삼성동 38-34,37.511213 ,127.045984 ,4,,
"쿨마트 논현점(아크로힐스 논현아파트 104동 앞) 정류소(버스, 택시 등)",서울 강남구 논현동 277-27,37.509521 ,127.040140 ,4,,
아크로힐스 103동 앞 도로변(횡단보도 포함),서울 강남구 논현동 276-1,37.509525 ,127.038955 ,4,,
"타이어T-스테이션 강남논현점 정류소(버스, 택시 등)",서울 강남구 봉은사로 229,37.508688 ,127.037174 ,4,,
"올리브영 언주역점 정류소(버스, 택시 등)",서울 강남구 논현동 235-9,37.507933 ,127.034999 ,4,,
거평타운 도로변(횡단보도 포함),서울 강남구 논현동 203-1,37.505890 ,127.028223 ,4,,
거평타운 도로변(횡단보도 포함),서울 강남구 논현동 203-1,37.505890 ,127.028223 ,4,,
"신논현역(봉은사로 110) 정류소(버스, 택시 등)",서울 강남구 역삼동 601-1,37.504646 ,127.025813 ,4,,
"삼정호텔(차병원 건강검진센터) 정류소(버스, 택시 등)",서울 강남구 역삼동 604-7,37.506123 ,127.031180 ,4,,
여송빌딩 도로변(횡단보도 포함),서울 강남구 역삼동 650,37.507122 ,127.034263 ,4,,
"송산빌딩 정류소(버스, 택시 등)",서울 강남구 역삼동 651,37.507366 ,127.035198 ,4,,
"송산빌딩 정류소(버스, 택시 등)",서울 강남구 역삼동 651,37.507366 ,127.035198 ,4,,
"송산빌딩 정류소(버스, 택시 등)",서울 강남구 역삼동 651,37.507366 ,127.035198 ,4,,
우리은행 역삼동지점 도로변(횡단보도 포함),서울특별시 강남구 역삼동 726,37.499070 ,127.038367 ,4,,
"NK타워 정류소(버스, 택시 등)",서울 강남구 역삼동 681-16,37.509107 ,127.040652 ,4,,
"창일빌딩 정류소(버스, 택시 등)",서울 강남구 역삼동 682-7,37.509708 ,127.042914 ,4,,
라마다호텔 도로변(횡단보도 포함),서울 강남구 봉은사로 410,37.510347 ,127.045279 ,4,,
"구다모 정류소(버스, 택시 등)",서울 강남구 삼성동 113-2,37.510657 ,127.046361 ,4,,
"우리은행 삼성중앙역지점 정류소(버스, 택시 등)",서울 강남구 삼성동 117-1,37.512477 ,127.052443 ,4,,
"광동한방병원 정류소(버스, 택시 등)",서울 강남구 삼성동 161,37.514260 ,127.062131 ,4,,
"신의주찹쌀순대 정류소(버스, 택시 등)",서울 강남구 봉은사로 636,37.514806 ,127.064907 ,4,,
"삼성빌딩 정류소(버스, 택시 등)",서울 강남구 삼성동 170-8,37.510002 ,127.065719 ,4,,
삼성역8번 출구 지하철역 입구,서울 강남구 테헤란로 607,37.509511 ,127.064002 ,4,,
K타워(삼성동 158-23) 도로변(횡단보도 포함),서울 강남구 테헤란로 513,37.508025 ,127.058888 ,4,,
국민은행 삼성동지점 도로변(횡단보도 포함),서울 강남구 삼성동 157-33,37.507398 ,127.057191 ,4,,
KB우준타워 도로변(횡단보도 포함),서울 강남구 삼성동 144-29,37.507209 ,127.056035 ,4,,
"연당빌딩 정류소(버스, 택시 등)",서울 강남구 삼성동 144-23,37.506842 ,127.055182 ,4,,
삼성생명 도로변(횡단보도 포함),서울 강남구 대치동 890,37.504765 ,127.051252 ,4,,
선릉역10번 출구 지하철역 입구,서울 강남구 삼성동 141-32,37.505299 ,127.049795 ,4,,
선릉역6번 출구 지하철역 입구,서울 강남구 역삼동 705-27,37.504790 ,127.048461 ,4,,
선릉역5번 출구 지하철역 입구,서울 강남구 역삼동 705-9,37.504645 ,127.047444 ,4,,
동훈타운 도로변(횡단보도 포함),서울 강남구 역삼동 702-19,37.503965 ,127.045746 ,4,,
"한국기술센터 정류소(버스, 택시 등)",서울 강남구 역삼동 701-7,37.503298 ,127.043647 ,4,,
"KEB하나은행 역삼역금융센터 정류소(버스, 택시 등)",서울 강남구 테헤란로 207,37.501712 ,127.038714 ,4,,
역삼역8번 출구 지하철역 입구,서울 강남구 역삼동 679-5,37.501307 ,127.037173 ,4,,
역삼역5번 출구 지하철역 입구,서울 강남구 역삼동 642-19,37.501024 ,127.036083 ,4,,
역삼역4번출구 지하철역 입구,서울 강남구 테헤란로 143,37.500619 ,127.034898 ,4,,
특허청 도로변(횡단보도 포함),서울 강남구 역삼동 647-9,37.500087 ,127.032901 ,4,,
여삼빌딩 도로변(횡단보도 포함),서울 강남구 역삼동 648-23,37.499564 ,127.031509 ,4,,
"단풍나무집 강남점 정류소(버스, 택시 등)",서울특별시 강남구 역삼동 822-7,37.498975 ,127.029535 ,4,,
강남역 12번출구 지하철역 입구,서울 강남구 역삼동 822-1,37.498664 ,127.028512 ,4,,
신사역6번 출구 지하철역 입구,서울 강남구 강남대로 616,37.516856 ,127.019798 ,4,,
신사역3번 출구 지하철역 입구,서울 강남구 강남대로 606,37.515868 ,127.020156 ,4,,
"동신빌딩 정류소(버스, 택시 등)",서울 강남구 논현동 17,37.515393 ,127.020191 ,4,,
전기공사공제조합 도로변(횡단보도 포함),서울 강남구 논현동 19-7,37.513112 ,127.020858 ,4,,
"강남에스엠여성의원 정류소(버스, 택시 등)",서울특별시 강남구 논현동 164-11,37.507508 ,127.023505 ,4,,
온누리제일그랜드약국 도로변(횡단보도 포함),서울 강남구 논현동 200,37.505107 ,127.024671 ,4,,
신논현역 5번출구 지하철역 입구,서울 강남구 역삼동 808-5,37.504203 ,127.025114 ,4,,
"한국자산관리공사 정류소(버스, 택시 등)",서울 강남구 도곡동 949-3,37.487182 ,127.033357 ,4,,
ABC마트 GS강남본점 도로변(횡단보도 포함),서울 강남구 강남대로 430,37.500966 ,127.026672 ,4,,
"씨티약국 정류소(버스, 택시 등)",서울 강남구 강남대로 374,37.496290 ,127.029067 ,4,,
뉴발란스 강남 플래그십스토어 도로변(횡단보도 포함),서울 강남구 역삼동 820,37.499508 ,127.027316 ,4,,
YBM어학원 강남센터 도로변(횡단보도 포함),서울 강남구 역삼동 820-8,37.499223 ,127.027575 ,4,,
압구정역4번 출구 지하철역 입구,서울 강남구 신사동 581-6,37.525633 ,127.028163 ,4,,
브라운성형외과의원 도로변(횡단보도 포함),서울 강남구 신사동 582-10,37.525242 ,127.028060 ,4,,
"국민은행 압구정종합금융센터 정류소(버스, 택시 등)",서울 강남구 신사동 585-13,37.522803 ,127.028021 ,4,,
하이마트 압구정점 도로변(횡단보도 포함),서울 강남구 신사동 563-33,37.519987 ,127.027390 ,4,,
"더조은 병원 정류소(버스, 택시 등)",서울특별시 강남구 논현동 37-21,37.514850 ,127.030065 ,4,,
학동역7번 출구 지하철역 입구,서울 강남구 논현동 58-7,37.514228 ,127.030262 ,4,,
학동역4번 출구 지하철역 입구,서울 강남구 논현동 129-1,37.513656 ,127.030490 ,4,,
"LGU+ 언주역점 정류소(버스, 택시 등)",서울 강남구 논현동 192-6,37.507910 ,127.033309 ,4,,
기업은행 언주역지점 도로변(횡단보도 포함),서울 강남구 논현동 192-19,37.507483 ,127.033425 ,4,,
"안덕빌딩 정류소(버스, 택시 등)",서울특별시 강남구 역삼동 607-11,37.505771 ,127.034237 ,4,,
배민라이더스 남부센터 도로변(횡단보도 포함),서울특별시 강남구 역삼동 607-19,37.504921 ,127.034658 ,4,,
마린텍 도로변(횡단보도 포함),서울 강남구 역삼동 628-14,37.503500 ,127.035229 ,4,,
"GS빌딩 정류소(버스, 택시 등)",서울 강남구 역삼동 679,37.502094 ,127.036798 ,4,,
온누리건강약국(온누리빌딩) 도로변(횡단보도 포함),서울특별시 강남구 역삼동 667-16,37.503660 ,127.035903 ,4,,
"문화빌딩 정류소(버스, 택시 등)",서울 강남구 역삼동 659-5,37.505400 ,127.035140 ,4,,
언주역 3번출구 지하철역 입구,서울 강남구 논현동 234-20,37.507882 ,127.034045 ,4,,
이자카야찬 도로변(횡단보도 포함),서울 강남구 논현동 221-14,37.510202 ,127.032830 ,4,,
"스타벅스 논현힐탑점 정류소(버스, 택시 등)",서울 강남구 논현동 216-5,37.511577 ,127.032197 ,4,,
학동역3번 출구 지하철역 입구,서울 강남구 학동로 204,37.513782 ,127.031196 ,4,,
"아이케슬 정류소(버스, 택시 등)",서울 강남구 논현동 86-1,37.515284 ,127.030740 ,4,,
국제모피 도로변(횡단보도 포함),서울 강남구 논현동 80,37.516822 ,127.029856 ,4,,
로뎀빌딩 도로변(횡단보도 포함),서울 강남구 신사동 591-18,37.521786 ,127.028452 ,4,,
"농협 압구정역지점 정류소(버스, 택시 등)",서울 강남구 신사동 599,37.524208 ,127.028744 ,4,,
압구정역3번 출구 지하철역 입구,서울 강남구 신사동 610-5,37.526120 ,127.028774 ,4,,
압구정역2번 출구 지하철역 입구,서울 강남구 논현로 876-2,37.526874 ,127.028679 ,4,,
현대아파트 79동 도로변(횡단보도 포함),서울 강남구 압구정동 449,37.529512 ,127.027120 ,4,,
"압구정중고 정류소(버스, 택시 등)",서울 강남구 압구정동 458,37.529660 ,127.030830 ,4,,
라움 도로변(횡단보도 포함),서울 강남구 신사동 637,37.528260 ,127.034146 ,4,,
글로벌뱅앤올룹슨 도로변(횡단보도 포함),서울 강남구 신사동 618-4,37.527759 ,127.033163 ,4,,
서울세관 도로변(횡단보도 포함),서울 강남구 논현동 71,37.518152 ,127.034019 ,4,,
"신한은행 영동지점 정류소(버스, 택시 등)",서울 강남구 논현동 84,37.516714 ,127.034815 ,4,,
올리브영 세관사거리점 도로변(횡단보도 포함),서울시 강남구 학동로235 영일빌딩,37.515580 ,127.035012 ,4,,
"포스코주택전시관 정류소(버스, 택시 등)",서울시 강남구 언주로 832,37.524604 ,127.033780 ,4,,
강남지인병원 도로변(횡단보도 포함),서울 강남구 언주로 631,37.512791 ,127.035028 ,4,,
"강남 YMCA(논현동225-6) 정류소(버스, 택시 등)",서울 강남구 언주로 615,37.510640 ,127.036186 ,4,,
"스포월드 정류소(버스, 택시 등)",서울 강남구 언주로98길 14,37.504844 ,127.042824 ,4,,
르노삼성자동차 강남지점 도로변(횡단보도 포함),서울 강남구 언주로 551,37.506993 ,127.039655 ,4,,
"영동전화국 정류소(버스, 택시 등)",서울 강남구 언주로98길 5,37.505177 ,127.042176 ,4,,
역삼 2번지하보도(테헤란로301) 기타(지하보도 앞),서울 강남구 테헤란로 301,37.503126 ,127.043069 ,4,,
"서울 전통 육개장 정류소(버스, 택시 등)",서울 강남구 언주로 516,37.504768 ,127.042069 ,4,,
"LGU+ K버스정류장 IDC논현센터 정류소(버스, 택시 등)",서울 강남구 언주로 616,37.511047 ,127.036984 ,4,,
"임페리얼 팔레스 정류소(버스, 택시 등)",서울시 강남구 언주로 640,37.514098 ,127.035885 ,4,,
"세븐일레븐 논현2호점 정류소(버스, 택시 등)",서울특별시 강남구 논현동 106-7,37.517281 ,127.035744 ,4,,
두산타워 도로변(횡단보도 포함),서울 강남구 언주로 726,37.519382 ,127.035198 ,4,,
"아크로갤러리 정류소(버스, 택시 등)",서울특별시 강남구 언주로 812,37.522962 ,127.033874 ,4,,
"윤당 아트홀 정류소(버스, 택시 등)",서울 강남구 언주로 844,37.525655 ,127.033730 ,4,,
"현대아파트 92동앞 정류소(버스, 택시 등)",서울 강남구 압구정로 309,37.531921 ,127.035539 ,4,,
"국대떡볶이 압구정로데오점 정류소(버스, 택시 등)",서울 강남구 선릉로 815,37.524866 ,127.039328 ,4,,
"LGU+ 강남구청역점 정류소(버스, 택시 등)",서울 강남구 선릉로 635 1층,37.513155 ,127.042473 ,4,,
"KS병원 정류소(버스, 택시 등)",서울 강남구 선릉로 571,37.509318 ,127.043944 ,4,,
선릉역7번출구 지하철역 입구,서울 강남구 역삼동 802-31,37.503583 ,127.049353 ,4,,
선릉역8번출구 지하철역 입구,서울 강남구 삼성동 141-36,37.504962 ,127.049037 ,4,,
"아크로텔 정류소(버스, 택시 등)",서울 강남구 선릉로 524,37.506655 ,127.048386 ,4,,
"건우한의원 정류소(버스, 택시 등)",서울 강남구 선릉로 630,37.512828 ,127.043162 ,4,,
나래(한미르빌딩) 도로변(횡단보도 포함),서울 강남구 선릉로 646,37.514196 ,127.042691 ,4,,
"도시빌딩 정류소(버스, 택시 등)",서울 강남구 선릉로 714,37.518628 ,127.040974 ,4,,
"영동고교입구 정류소(버스, 택시 등)",서울 강남구 선릉로 742,37.521389 ,127.043739 ,4,,
"버거킹 청담점 정류소(버스, 택시 등)",서울 강남구 선릉로 812,37.524305 ,127.039725 ,4,,
Tag Heuer 도로변(횡단보도 포함),서울 강남구 선릉로 828,37.525836 ,127.040234 ,4,,
"청담성모치과 정류소(버스, 택시 등)",서울 강남구 삼성로 767,37.523106 ,127.047607 ,4,,
청기와 아트갤러리 도로변(횡단보도 포함),서울 강남구 삼성로 755,37.522271 ,127.048064 ,4,,
피카소 라운지 도로변(횡단보도 포함),서울 강남구 삼성로148길 10,37.523711 ,127.048619 ,4,,
"설빙 청담공원점 정류소(버스, 택시 등)",서울특별시 강남구?삼성로?725,37.520218 ,127.049070 ,4,,
청담역8번 출구 지하철역 입구,서울 강남구 청담동 77-72,37.519613 ,127.049688 ,4,,
"상아아파트 2동앞(학동로446) 정류소(버스, 택시 등)",서울 강남구 학동로 445,37.519093 ,127.049609 ,4,,
노브랜드 강남삼성점 도로변(횡단보도 포함),서울 강남구 삼성로 633,37.516294 ,127.051108 ,4,,
"센트럴 아이파크 304동 앞 정류소(버스, 택시 등)",서울 강남구 삼성로 629,37.515786 ,127.051319 ,4,,
BK타워 도로변(횡단보도 포함),서울 강남구 삼성로 547,37.510350 ,127.054374 ,4,,
"삼성주유소 정류소(버스, 택시 등)",서울 강남구 삼성로 563,37.511885 ,127.053593 ,4,,
리칭 도로변(횡단보도 포함),서울 강남구 삼성로 520,37.508706 ,127.055920 ,4,,
"홈플러스 익스프레스 삼성2점 정류소(버스, 택시 등)",서울 강남구 삼성로 548,37.510617 ,127.055031 ,4,,
"강남구도시관리공단 정류소(버스, 택시 등)",서울 강남구 삼성로 628,37.515911 ,127.052143 ,4,,
청담역6번 출구 지하철역 입구,서울 강남구 삼성동 52,37.518591 ,127.050737 ,4,,
청담역9번 출구 지하철역 입구,서울 강남구 청담동 76-4,37.519363 ,127.050329 ,4,,
"아베뉴 주노 정류소(버스, 택시 등)",서울 강남구 삼성로 740,37.521511 ,127.049397 ,4,,
"토담골 정류소(버스, 택시 등)",서울 강남구 삼성로 766,37.523260 ,127.048206 ,4,,
"리버뷰오피스텔 정류소(버스, 택시 등)",서울 강남구 영동대로 721,37.522204 ,127.055305 ,4,,
"대신증권 청담WM센터 정류소(버스, 택시 등)",서울 강남구 영동대로 707,37.520707 ,127.055946 ,4,,
청담역13번 출구 지하철역 입구,서울 강남구 청담동 77-4,37.523199 ,127.055354 ,4,,
청담역2번출구 지하철역 입구,서울 강남구 영동대로 647,37.519650 ,127.056619 ,4,,
"동남철물 정류소(버스, 택시 등)",서울 강남구 영동대로 613,37.514902 ,127.059350 ,4,,
"무역센터 위 (공항버스정류장 인근) 정류소(버스, 택시 등)",서울 강남구 테헤란로 521,37.509192 ,127.060807 ,4,,
무역센터 도로변(횡단보도 포함),서울 강남구 영동대로 513,37.511824 ,127.059159 ,4,,
"인터콘티넨탈호텔 정류소(버스, 택시 등)",서울 강남구 테헤란로 521,37.509192 ,127.060807 ,4,,
삼성역6번 출구 지하철역 입구,서울 강남구 삼성동 111-8,37.514463 ,127.060098 ,4,,
삼성역7번 출구 지하철역 입구,서울 강남구 삼성동 111-8,37.514463 ,127.060098 ,4,,
"한국산업은행 강남지점 정류소(버스, 택시 등)",서울 강남구 영동대로 421,37.507001 ,127.063532 ,4,,
한전앞 도로변(횡단보도 포함),서울 강남구 영동대로 512,37.511930 ,127.064640 ,4,,
"GM대우 정류소(버스, 택시 등)",서울 강남구 영동대로 340,37.505065 ,127.065830 ,4,,
청담역1번출구 지하철역 입구,서울 강남구 삼성동 111-8,37.514463 ,127.060098 ,4,,
청담역14번 출구 지하철역 입구,서울 강남구 청담동 77-4,37.523199 ,127.055354 ,4,,
"우리은행 청담동금융센터 정류소(버스, 택시 등)",서울 강남구 영동대로 708,37.521057 ,127.057137 ,4,,
국민은행 청담영동지점 도로변(횡단보도 포함),서울 강남구 영동대로 720,37.522188 ,127.056461 ,4,,
"영동낙지(제일정형외과) 정류소(버스, 택시 등)",서울 강남구 영동대로 726,37.522821 ,127.056141 ,4,,
미켈란(삼성동 147-2) 도로변(횡단보도 포함),서울 강남구 봉은사로 516,37.513237 ,127.055996 ,4,,
한국촌(삼성동 153-29) 도로변(횡단보도 포함),서울시 강남구 테헤란로87길 57,37.511287 ,127.057191 ,4,,
심스빌딩 도로변(횡단보도 포함),서울 강남구 테헤란로87길 39,37.510340 ,127.057643 ,4,,
K타워(삼성동 158-23) 도로변(횡단보도 포함),서울 강남구 테헤란로 513,37.508025 ,127.058888 ,4,,
세븐럭카지노 도로변(횡단보도 포함),서울 강남구 테헤란로87길 58,37.512015 ,127.057540 ,4,,
"서울의료원 정류소(버스, 택시 등)",서울 강남구 봉은사로114길 43,37.513036 ,127.066655 ,4,,
서울의료원 도로변(횡단보도 포함),서울 강남구 봉은사로114길 43,37.513036 ,127.066655 ,4,,
현대오트론 도로변(횡단보도 포함),서울 강남구 테헤란로113길 12,37.511293 ,127.066530 ,4,,
24길2번지 (버스정류장 ID:20-157) 버스정류장 옆,서울 동작구 노량진로24길 2,37.512388 ,126.953050 ,4,,
248번지(노들지구대 앞) 가로변,서울 동작구 노량진로 248,37.512402 ,126.953637 ,4,,
노들역 (버스정류장 ID:20-014) 중앙차로 버스정류장,서울 동작구 노량진로 226,37.512491 ,126.950941 ,4,,
224번지(노량진우체국) 가로변,서울 동작구 노량진로 224,37.512465 ,126.950636 ,4,,
노들역 (버스정류장 ID:20-013) 중앙차로 버스정류장,서울 동작구 노량진로 212,37.512623 ,126.949511 ,4,,
동작구청앞 버스정류장 (버스정류장 ID:20-944) 가로변,서울 동작구 국사봉길 42,37.497680 ,126.929980 ,4,,
191(사육신묘앞) 가로변,서울 동작구 노량진로 191,37.513458 ,126.949411 ,4,,
16길 33번지 가로변,서울 동작구 노량진로 16길 33,37.512059 ,126.944174 ,4,,
223번지 가로변,서울 동작구 노량진로 223,37.512969 ,126.950792 ,4,,
112번지(다이소 앞) 가로변,서울 동작구 만양로 112,37.513336 ,126.944421 ,4,,
노량진동 116-2(한성주창장앞) 가로변,서울 동작구 만양로 112,37.513336 ,126.944421 ,4,,
143-1번지 가로변,서울 동작구 장승배기로 143-1,37.510448 ,126.939943 ,4,,
102(나이스가이 헤어숍) 가로변,서울 동작구 장승배기로 102,37.506731 ,126.939984 ,4,,
124번지 가로변,서울 동작구 노량진로 124,37.513273 ,126.939619 ,4,,
160(노량진초등학교 앞) 가로변,서울 동작구 장승배기로 160,37.511750 ,126.940824 ,4,,
128번지(기업은행 앞) 가로변,서울 동작구 장승배기로 128,37.508949 ,126.940744 ,4,,
노량진로 152-1(해박난치과) 가로변,서울 동작구 노량진로 152-1,37.513456 ,126.942857 ,4,,
53길39번지 (버스정류장 ID:20-244) 마을버스정류장 옆,서울 동작구 상도로53길 41,37.500849 ,126.953537 ,4,,
268번지 가로변,서울 동작구 양녕로 268,37.503500 ,126.948856 ,4,,
1길17 동양아파트 (버스정류장 ID:20-917) 가로변,서울 동작구 서달로 61,37.499608 ,126.960164 ,4,,
봉현초등학교 (버스정류장 ID:20-167) 버스정류장 옆,서울 관악구 성현로 117,37.491217 ,126.955352 ,4,,
383-1 번지 가로변,서울 동작구 상도로 383-1,37.494937 ,126.955187 ,4,,
357번지 (버스정류장 ID:20-165) 가로변,서울 동작구 상도로 364-1,37.496074 ,126.953425 ,4,,
22번지 (버스정류장 ID:20-169) 버스정류장 옆,서울 동작구 사당로 24-1,37.495072 ,126.957133 ,4,,
352번지 가로변,서울 동작구 상도로 352,37.496989 ,126.952614 ,4,,
267(상도역3번출구 옆) 가로변,서울 동작구 상도로 267,37.503580 ,126.947686 ,4,,
6번지(백두공인중개사) 가로변,서울 동작구 만양로 6,37.504982 ,126.946789 ,4,,
숭실대별관앞 (버스정류장 ID:20-172) 버스정류장 옆,서울 동작구 서달로 4,37.495102 ,126.961243 ,4,,
134번지 가로변,서울 동작구 상도로 134,37.502025 ,126.934776 ,4,,
269-1번지 가로변,서울 동작구 양녕로 269-1,37.504040 ,126.948784 ,4,,
156번지 가로변,서울 동작구 상도로 156,37.503215 ,126.936603 ,4,,
73번지(상도치안센타 옆) 마을버스정류장 옆,서울 동작구 장승배기로 73,37.504162 ,126.939116 ,4,,
78번지 가로변,서울 동작구 장승배기로 78,37.504606 ,126.939511 ,4,,
147번지 가로변,서울 동작구 상도로 78,37.499545 ,126.929148 ,4,,
181번지 가로변,서울 동작구 상도로 181,37.504958 ,126.938831 ,4,,
동작보건소 (버스정류장 ID:20-153) 버스정류장 옆,서울 동작구 상도로 207,37.505571 ,126.941856 ,4,,
경향렉스빌 (버스정류장 ID:20-222) 마을버스정류장 옆,서울 동작구 양녕로 167,37.497030 ,126.941963 ,4,,
94번지(주작나무 한의원 앞) 가로변,서울 동작구 상도로 94,37.499763 ,126.931153 ,4,,
104번지(왕세숫대야냉면) 가로변,서울 동작구 보라매로 104,37.498434 ,126.928312 ,4,,
101번지(삼거리 왕만두) 가로변,서울 동작구 보라매로 101,37.498328 ,126.927853 ,4,,
서울공업고등학교 (버스정류장 ID:20-144) 버스정류장 옆,서울 동작구 상도로 5,37.500312 ,126.921217 ,4,,
16번지 가로변,서울 동작구 상도로 16,37.499718 ,126.922318 ,4,,
강남중학교 (버스정류장 ID: 20-006) 버스 중앙차로,서울 동작구 여의대방로 188-1,37.503703 ,126.922013 ,4,,
22번지 우성아파트 (버스정류장 ID:20-927) 마을버스정류장 옆,서울 동작구 여의대방로 8,37.493104 ,126.910602 ,4,,
교수아파트 (버스정류장 ID:20-928) 버스정류장 옆,서울 동작구 여의대방로10길 14,37.496328 ,126.913964 ,4,,
2-5 (버스정류장 ID:20-207) 마을버스정류장 옆,서울 동작구 신대방동 702-9,37.486855 ,126.911606 ,4,,
6번지 (버스정류장 ID:20-107) 가로변,서울 동작구 알마타길 6,37.509857 ,126.924954 ,4,,
동작상떼빌아파트 (버스정류장 ID:20-001) 버스 중앙차로,서울 동작구 시흥대로 606,37.486492 ,126.905526 ,4,,
123번지(대방할인마트 앞) 가로변,서울 동작구 등용로 123,37.512105 ,126.931724 ,4,,
현대아파트 (버스정류장 ID:20-007) 버스중앙차로,서울 동작구 노량진로 48,37.513009 ,126.931093 ,4,,
현대아파트유한양행 (버스정류장 ID:20-008) 버스중앙차로,서울 동작구 노량진로 53,37.513940 ,126.934358 ,4,,
40번지 (버스정류장 ID:20-593) 마을버스정류장 옆,서울 동작구 등용로 40-2,37.505851 ,126.934359 ,4,,
15길 8-12(흑석역4번출구) 지하철 9호선 옆,서울 동작구 흑석동 4,37.508502 ,126.964009 ,4,,
124번지(조선일보뉴지엄) 가로변,서울 동작구 현충로 124,37.506293 ,126.967146 ,4,,
흑석동 효사정 앞 (버스정류장 ID:20-123) 버스정류장 옆,서울 동작구 현충로2길 4,37.511479 ,126.960450 ,4,,
108번지 가로변,서울 동작구 현충로 108,37.507358 ,126.965342 ,4,,
동작실버센터입구 (버스정류장 ID:20-251) 버스정류장 옆,서울특별시 동작구 현충로 4,37.513073 ,126.956557 ,4,,
4번지 효사정 앞 (버스정류장 ID:20-124) 버스정류장 옆,서울 동작구 현충로2길 4,37.511479 ,126.960450 ,4,,
151번지 (버스정류장 ID:20-130) 버스정류장 옆,서울 동작구 현충로 151,37.506779 ,126.968934 ,4,,
111번지 (버스정류장 ID:20-127)  버스정류장 옆,서울 동작구 현충로 105,37.507837 ,126.965609 ,4,,
158번지 가로변,서울 동작구 서달로 158,37.507068 ,126.962330 ,4,,
경문고등학교 (버스정류장 ID:22-031) 중앙차로,서울 서초구 동작대로 156,37.490408 ,126.983032 ,4,,
경문고교 배나무골앞 (버스정류장 ID:20-017) 중앙차로,서울 서초구 동작대로 164,37.491288 ,126.983059 ,4,,
171번지(경문고앞) 가로변,서울 동작구 동작대로 171,37.493419 ,126.982273 ,4,,
정금마을 (버스정류장 ID:22-033) 중앙차로,서울 서초구 동작대로 188,37.493301 ,126.983094 ,4,,
정금마을 방배경찰서 (버스정류장 ID:20-016) 중앙차로,서울 강남구 강남대로 574,37.513103 ,127.020859 ,4,,
235번지 깨마을 (버스정류장 ID:20-015) 버스 중앙차로,서울 동작구 동작대로 235,37.497745 ,126.983193 ,4,,
239번지 가로변,서울 동작구 동작대로 239,37.498167 ,126.983395 ,4,,
국립현충원( (버스정류장 ID:20-133) 버스정류장 옆,서울 동작구 동작동 193,37.501771 ,126.976562 ,4,,
국립현충원( (버스정류장 ID:20-134) 버스정류장 옆,서울 동작구 현충로 지하 220,37.503067 ,126.977937 ,4,,
남성시장 (버스정류장 ID:20-018) 버스중앙차로,서울 동작구 동작대로 135,37.488703 ,126.981970 ,4,,
남성시장 (버스정류장 ID:22-029) 버스중앙차로,서울 서초구 동광로12가길 42,37.487518 ,126.982601 ,4,,
101번지(다비치안경 앞) 가로변,서울 동작구 동작대로 101,37.485668 ,126.981675 ,4,,
121번지(미샤 앞) 가로변,서울 동작구 동작대로 121,37.487480 ,126.981860 ,4,,
23길2(세븐일레븐 앞) 가로변,서울 동작구 사당로23길 2,37.484192 ,126.977406 ,4,,
사당시장 (버스정류장 ID:20-180) 버스정류장 옆,서울 동작구 사당로 227,37.483758 ,126.973199 ,4,,
남성역 (버스정류장 ID:20-178) 버스정류장 옆,서울 동작구 사당로13길 31,37.485803 ,126.971255 ,4,,
300번지 (버스정류장 ID: 20-184) 버스정류장 옆,서울 동작구 사당로 300,37.484379 ,126.980282 ,4,,
254번지 (버스정류장 ID:20-252) 버스정류장 옆,서울특별시 동작구 사당로 258,37.483351 ,126.976382 ,4,,
138(사당지구대 앞) 가로변,서울 동작구 사당로 138,37.488959 ,126.965703 ,4,,
19(한국전력 앞) 지하철 옆,서울 동작구 동작대로 19,37.478309 ,126.980959 ,4,,
27번지(IBK기업은행 앞) 가로변,서울 동작구 동작대로 27,37.478923 ,126.981246 ,4,,
67번지(더본병원 앞) 가로변,서울 동작구 동작대로 67,37.482547 ,126.981481 ,4,,
방배노인복지관  (버스정류장 ID: 20-020) 버스 중앙차로,서울 동작구 동작대로 43,37.480418 ,126.981456 ,4,,
이수역 (버스정류장 ID:20-027) 버스정류장 옆,서울 서초구 동작대로 68,37.482582 ,126.982342 ,4,,
사당동우체국앞 (버스정류장 ID:20-019) 가로변,서울 동작구 동작대로 75,37.483379 ,126.981411 ,4,,
천수공원앞(사당역7번출구) 가로변,서울 동작구 사당동 1043-16,37.476917 ,126.981155 ,4,,
2019번지 가로변,서울 동작구 남부순환로 2019,37.476250 ,126.972997 ,4,,
2069번지 가로변,서울 동작구 남부순환로 2069,37.476935 ,126.978778 ,4,,
106-5 번지 가로변,서울 동작구 흑석로 106-5,37.507892 ,126.961459 ,4,,
108(신한은행) (버스정류장 ID:20194) 버스정류장 옆,서울 동작구 흑석로 108,37.508045 ,126.961344 ,4,,
114-5(올리브 영) 가로변,서울 동작구 노량진로 114,37.513011 ,126.938612 ,4,,
만양로3길20 신동아리버파크 가로변,서울 동작구 만양로3길 20,37.508211 ,126.946119 ,4,,
노들역앞 정류장 (버스정류장 ID:20-247) 버스정류장 옆,서울 동작구 노량진로 247,37.514531 ,126.952430 ,4,,
강남교회 앞 정류장 (버스정류장 ID:20-819) 버스정류장 옆,서울 동작구 만양로 76,37.510326 ,126.945102 ,4,,
노량진역앞 7번출구 지하철역 앞,서울 동작구 노량진동 60-11,37.513585 ,126.940905 ,4,,
노량진로 223 (버스정류장 ID:20-121) 가로변,서울 동작구 노량진로 225,37.512953 ,126.950990 ,4,,
사당로 285(이디야 커피숍 앞) 가로변,서울 동작구 사당로 285,37.484649 ,126.979183 ,4,,
태평백화점 앞 가로변,서울특별시 동작구 동작대로 115,37.486876 ,126.981665 ,4,,
남부순환로 2057(다이소 앞) 가로변,서울 동작구 남부순환로 2057,37.476934 ,126.977360 ,4,,
총신대 (버스정류장 ID:20-174) 버스정류장 옆,서울 동작구 사당로 138,37.488959 ,126.965703 ,4,,
172번지(새마을금고 앞) 가로변,서울 동작구 사당로 172,37.486496 ,126.967897 ,4,,
남성초등학교 (버스정류장 ID:20-496) 버스정류장 옆,서울 동작구 사당로 261,37.483808 ,126.976573 ,4,,
194 (버스정류장 ID:20-600) 버스정류장 옆,서울 동작구 사당로 192,37.485168 ,126.969523 ,4,,
대림로 14 (버스정류장 ID:20-208) 버스정류장 옆,서울 동작구 대림로 12-1,37.487460 ,126.911770 ,4,,
등용로 96 (버스정류장 ID:20-106) 버스정류장 옆,서울 동작구 여의대방로44길 10,37.507361 ,126.926091 ,4,,
658(올리브 영 앞) 가로변,서울 동작구 시흥대로 658,37.490375 ,126.908077 ,4,,
126 가로변,서울 동작구 여의대방로 126,37.498140 ,126.920555 ,4,,
177번지 (버스정류장 ID:20-892) 마을버스정류장 옆,서울 동작구 양녕로 177,37.497152 ,126.942933 ,4,,
상도로 357 (버스정류장 ID:20-166) 버스정류장 옆,서울 동작구 상도로 357,37.496940 ,126.953541 ,4,,
중앙하이츠빌 아파트 (버스정류장 ID:20-162) 버스정류장 옆,서울 동작구 상도동 462-1,37.498720 ,126.950959 ,4,,
상도시장 (버스정류장 ID:20-160) 버스정류장 옆,서울 동작구 상도로 290,37.501681 ,126.948609 ,4,,
16-1번지 가로변,서울 동작구 장승배기로 16-1,37.500002 ,126.942885 ,4,,
"양재역 3,4번출구사이 도로변(횡단보도 포함)",서울 강남구 도곡동 958-3,37.484607 ,127.035036 ,4,,
도곡동 949-3 도로변(횡단보도 포함),서울 강남구 강남대로 262,37.486960 ,127.033445 ,4,,
역삼동 837 도로변(횡단보도 포함),서울 강남구 강남대로 318,37.491569 ,127.031180 ,4,,
"역삼동 826-22 정류소(버스, 택시 등)",서울 강남구 강남대로 368,37.495728 ,127.029258 ,4,,
강남역 2번출구 앞 지하철역 입구,서울 강남구 역삼동 825-13,37.497408 ,127.028349 ,4,,
강남역 1번출구 앞 지하철역 입구,서울 강남구 역삼동 804,37.501249 ,127.038332 ,4,,
역삼동 캠브리지빌딩 앞 정류소(버스 택시 등),서울 강남구 역삼동 825-18,37.498084 ,127.029389 ,4,,
역삼동 735 정류소(버스 택시 등),서울 강남구 역삼동 735,37.499268 ,127.033042 ,4,,
역삼역 3번출구 앞 지하철역 입구,서울 강남구 역삼동 736-6,37.499995 ,127.035415 ,4,,
역삼동 718-2 정류소(버스 택시 등) ,서울 강남구 역삼동 718-2,37.501108 ,127.039022 ,4,,
역삼동 706-1 정류소(버스 택시 등) ,서울 강남구 역삼동 706-1 정류소,37.502592 ,127.044102 ,4,,
역삼동 선릉역 4번출구 앞 정류소(버스 택시 등) ,서울 강남구 역삼1동,37.495417 ,127.033201 ,4,,
대치동 선릉역 1번출구 방면 정류소(버스 택시 등) ,서울 강남구 대치동 1011,37.507163 ,127.058021 ,4,,
대치동 890-6 도로변(횡단보도 포함),대치동 890-6 도로변,37.504856 ,127.051540 ,4,,
대치동 945-2 정류소(버스 택시 등) ,대치동945-2 정류소,37.507964 ,127.061604 ,4,,
대치동 997-4 도로변(횡단보도 포함) ,대치동 997-4 도로변,37.509265 ,127.066383 ,4,,
대치동 998 정류소(버스 택시 등) ,대치동 998 정류소,37.509367 ,127.067100 ,4,,
삼성역 1번출구앞 도로변(횡단보도 포함) ,서울 강남구 대치동 995,37.503190 ,127.066251 ,4,,
테헤란로 432 DB금융센터빌딩 정류소(버스 택시 등),서울 강남구 테헤란로 432,37.505881 ,127.054811 ,4,,
대치동 892 포스코빌딩 정류소(버스 택시 등),대치동 892 포스코빌딩 정류소,37.505790 ,127.056153 ,4,,
대치동 892 포스코빌딩 도로변(횡단보도 포함),대치동 892 포스코빌딩 도로변,37.505790 ,127.056153 ,4,,
504 해성1빌딩 정류소(버스 택시 등),테헤란로 504 해성1빌딩 정류소,37.506627 ,127.057347 ,4,,
510 루첸타워 도로변(횡단보도 포함),테헤란로 510 루첸타워 정류소,37.507002 ,127.058656 ,4,,
대치동 961 도로변(횡단보도 포함),대치동 961 도로변,37.503023 ,127.059110 ,4,,
대치동 966-5 정류소(버스 택시 등),대치동 966-5 정류소,37.503975 ,127.062416 ,4,,
역삼동 개나리sk뷰아파트상가 정류소(버스 택시 등),역삼동 716-4,37.500547 ,127.050330 ,4,,
대치동 986-6 도로변(횡단보도 포함),대치동 986-6 도로변,37.500322 ,127.064499 ,4,,
대치동 941-20 도로변(횡단보도 포함),대치동 941-20 도로변,37.498988 ,127.060071 ,4,,
대치동 939-21 도로변(횡단보도 포함),대치동 939-21 도로변,37.497817 ,127.056465 ,4,,
대치동 938-23 도로변(횡단보도 포함),대치동 938-23 도로변,37.497318 ,127.054968 ,4,,
대치동 1024-4 도로변(횡단보도 포함),대치동 1024-4 도로변,37.497009 ,127.056259 ,4,,
대치동 1022-1 도로변(횡단보도 포함),대치동 1022-1 도로변,37.497877 ,127.058633 ,4,,
대치동 1021-8 도로변(횡단보도 포함),대치동 1021-8 도로변,37.498395 ,127.060644 ,4,,
대치동 989-1 도로변(횡단보도 포함),대치동 989-1 도로변,37.498813 ,127.061643 ,4,,
대치동 990-1 정류소(버스 택시 등),대치동 990-1 정류소,37.499416 ,127.063445 ,4,,
역삼동 한티역 7번출구 앞 정류소(버스 택시 등),서울 강남구 역삼2동,37.495964 ,127.046839 ,4,,
역삼동 785-15 도로변(횡단보도 포함),역삼동 785-15 도로변,37.494307 ,127.045912 ,4,,
역삼동 788-32 정류소(버스 택시 등),역삼동 788-32 정류소,37.493001 ,127.041796 ,4,,
역삼동 799-21 정류소(버스 택시 등),역삼동 799-21 정류소,37.491953 ,127.038543 ,4,,
역삼동 839-17 정류소(버스 택시 등),역삼동 839-17 정류소,37.489656 ,127.033444 ,4,,
도곡동 943-2 정류소(버스 택시 등),도곡동 943-2 정류소,37.490380 ,127.032855 ,4,,
도곡동 545-7 정류소(버스 택시 등),도곡동 545-7 정류소,37.491454 ,127.038860 ,4,,
도곡동 543-5 정류소(버스 택시 등),도곡동 543-5 정류소,37.492468 ,127.042429 ,4,,
도곡동 래미안그레이트아파트 정류소(버스  택시 등),서울 강남구 역삼2동,37.495964 ,127.046839 ,4,,
대치동940-3 다이소매장앞 도로변(횡단보도 포함),대치동940-3 다이소매장앞,37.498519 ,127.057749 ,4,,
한티역3번출구앞 정류소(버스 택시 등),서울 강남구 대치1동,37.493260 ,127.056820 ,4,,
대치동 은마아파트 2동 앞 정류소(버스 택시 등),서울 강남구 대치2동 정류소,37.495808 ,127.067019 ,4,,
대치동 605 정류소(버스 택시 등),대치동 605 정류소,37.494025 ,127.061344 ,4,,
대치동 629 정류소(버스 택시 등),대치동 629 정류소,37.492863 ,127.058611 ,4,,
대치동 651 도로변(횡단보도 포함),대치동 651 도로변,37.492208 ,127.057381 ,4,,
도곡동 도곡역 2번출구 지하철역 입구,서울 강남구 대치동 600,37.492676 ,127.059212 ,4,,
대치동 그랑프리상가 정류소(버스 택시 등),서울 강남구 대치동 500,37.491219 ,127.056525 ,4,,
대치역 7번출구 정류소(버스 택시 등),대치역 7번출구 정류소,37.492549 ,127.064017 ,4,,
대치동 미도아파트 201동 앞 정류소(버스 택시 등),서울 강남구 삼성로 150 정류소,37.495695 ,127.068565 ,4,,
대치동 학여울역 1번출구 앞 지하철역 입구,서울 강남구 개포동 184-2 지하철역 입구,37.492178 ,127.072308 ,4,,
도곡동 숙명여고 앞 정류소(버스 택시 등),서울 강남구 언주로 117 도로변,37.486466 ,127.050396 ,4,,
도곡동 매봉역 2번출구 앞 지하철역 입구,서울 강남구 도곡동 179-2 앞,37.486994 ,127.046680 ,4,,
도곡동 180-13 정류소(버스 택시 등),도곡동 180-13 정류소,37.486382 ,127.044854 ,4,,
도곡동 411-20 정류소(버스 택시 등),도곡동 411-20 정류소,37.485957 ,127.045431 ,4,,
도곡동 463 도로변(횡단보도 포함),도곡동 463 도로변,37.486617 ,127.047110 ,4,,
도곡동 개포한신아파트 앞 정류소(버스 택시 등),서울 강남구 언주로 123 정류장,37.487603 ,127.049755 ,4,,
도곡역 4번출구 앞 도로변(횡단보도 포함),서울 강남구 언주로30길 57 도로변,37.489457 ,127.053965 ,4,,
개포1.2차 우성아파트 9동앞 도로변(횡단보도 포함),대치동 503 노인정 도로변,37.491125 ,127.059896 ,4,,
대치동 1009-5 도로변(횡단보도 포함),대치동 1009-5 도로변,37.501642 ,127.067767 ,4,,
대치동 1008-3 도로변(횡단보도 포함),대치동 1008-3 도로변,37.503036 ,127.067046 ,4,,
대치동 1007 정류소(버스 택시 등),대치동 1007 도로변,37.504572 ,127.066172 ,4,,
대치동 1001 정류소(버스  택시 등)   ,대치동 1001 도로변,37.507429 ,127.064559 ,4,,
대치동 995-9 정류소(버스 택시 등)   ,대치동 995-9 도로변,37.507941 ,127.064230 ,4,,
대치동 946-11 정류소(버스 택시 등)   ,대치동 946-11 도로변,37.507879 ,127.063021 ,4,,
대치동 947-7 정류소(버스 택시 등)   ,대치동 947-7 도로변,37.507056 ,127.063481 ,4,,
대치동 949-11 도로변(횡단보도 포함),대치동 949-11 도로변,37.505232 ,127.064499 ,4,,
대치동 984-4 정류소(버스 택시 등)   ,대치동 984-4 도로변,37.501816 ,127.066398 ,4,,
대치동 984-6 도로변(횡단보도 포함),대치동 984-6 도로변,37.501339 ,127.066657 ,4,,
대치동 50-8 도로변(횡단보도 포함),대치동 50-8 도로변,37.497155 ,127.070458 ,4,,
대치동 우성아파트 도로변(횡단보도 포함),대치동 50-45 도로변,37.498418 ,127.069515 ,4,,
대치동 993-2 도로변(횡단보도 포함),대치동 993-2 도로변,37.500480 ,127.067093 ,4,,
대치동 994-16 정류소(버스 택시 등)   ,대치동 994-16 정류소,37.498357 ,127.068293 ,4,,
대치동 은마아파트 정상어학원 앞 도로변(횡단보도 포함),대치동 994-4 도로변,37.499412 ,127.067582 ,4,,
대치동 은마아파트 강남나무병원 앞 도로변(횡단보도 포함),대치동 994-5 도로변,37.499278 ,127.067673 ,4,,
대치동 994-8 도로변(횡단보도 포함),대치동 994-8 도로변,37.498701 ,127.068068 ,4,,
대치동 994-10 스타벅스 앞 도로변(횡단보도 포함),대치동 994-10 스타벅스 앞 도로변,37.498037 ,127.068504 ,4,,
은마아파트 1동앞 도로변(횡단보도 포함),대치동 316 도로변,37.497418 ,127.065327 ,4,,
대치동 1020 정류소(버스 택시 등)   ,대치동 1020 정류소,37.498382 ,127.061524 ,4,,
대치동 988-14 도로변(횡단보도 포함),대치동 988-14 도로변,37.499390 ,127.061127 ,4,,
대치동 974-1 정류소(버스 택시 등)   ,대치동 974-1 정류소,37.500848 ,127.060130 ,4,,
대치동 962-21 도로변(횡단보도 포함),대치동 962-21 도로변,37.501507 ,127.059906 ,4,,
대치동 960-4 정류소(버스 택시 등)   ,대치동 960-4 정류소,37.503572 ,127.058807 ,4,,
대치동 957-13 도로변(횡단보도 포함),대치동 957-13 도로변,37.505301 ,127.057809 ,4,,
대치동 903-29 정류소(버스 택시 등)   ,대치동 903-29 정류소,37.503322 ,127.058111 ,4,,
대치동 913-16 도로변(횡단보도 포함),대치동 913-16 도로변,37.501689 ,127.058957 ,4,,
대치동 1019-14 정류소(버스 택시 등)   ,대치동 1019-14 정류소,37.498047 ,127.060896 ,4,,
대치동 한티근린공원 정류소(버스 택시 등)   ,서울 강남구 삼성로 221 정류소,37.496703 ,127.061751 ,4,,
대치동 897 도로변(횡단보도 포함),대치동 897 도로변,37.502889 ,127.050083 ,4,,
대치동 889-33 도로변(횡단보도 포함),대치동 889-33 도로변,37.503889 ,127.049447 ,4,,
진선여고사거리 정류소(버스 택시 등)   ,역삼동 716 정류소,37.502438 ,127.049360 ,4,,
역삼동 대림e편한세상 정류소(버스 택시 등)   ,역삼동 755-4 앞 정류소,37.498778 ,127.049879 ,4,,
도곡동 106-1 도로변(횡단보도 포함),도곡동 106-1 도로변,37.492698 ,127.053522 ,4,,
도곡동 91 정류소(버스 택시 등)   ,도곡동 91 정류소,37.491024 ,127.053047 ,4,,
206 대치동부센트레빌 101동 앞 정류소(버스 택시 등)   ,서울 강남구 선릉로 206 동부센트레빌상가 122호 앞 정류소,37.491464 ,127.055642 ,4,,
역삼동 래미안그레이트아파트 정류소(버스 택시 등)   ,역삼동 762-3 앞 정류소,37.495165 ,127.047245 ,4,,
대림역삼아파트 앞 정류소(버스 택시 등)   ,역삼2동 761-18 앞 정류소,37.495955 ,127.046657 ,4,,
역삼동 래미안개나리 103동 앞 도로변(횡단보도 포함),역삼동 754 앞 도로변,37.498571 ,127.046419 ,4,,
역삼동 역삼자이아파트103동 앞 정류소(버스 택시 등)   ,역삼동 711-3 앞 도로변,37.500442 ,127.044484 ,4,,
역삼동 도곡지구대 도로변(횡단보도 포함),역삼동 711 앞 도로변,37.501333 ,127.043718 ,4,,
역삼동 734-17 도로변(횡단보도 포함),역삼동 734-17 앞 도로변,37.496221 ,127.039397 ,4,,
역삼동 역삼역 1번출구 도로변(횡단보도 포함),역삼동 717 앞 도로변,37.500255 ,127.038087 ,4,,
일원동 712-1 정류소(버스 택시 등)   ,일원동 712-1 정류소,37.492174 ,127.087831 ,4,,
일원동 643-5 도로변(횡단보도 포함),일원동 643-5 도로변,37.492120 ,127.087369 ,4,,
대청역 3번출구 앞 도로변(횡단보도 포함),서울 강남구 일원동 700-6 도로변,37.494155 ,127.081075 ,4,,
대청역 6번출구 앞 도로변(횡단보도 포함),서울 강남구 일원동 700-5 앞 도로변,37.493421 ,127.078769 ,4,,
개포동 183 정류소(버스 택시 등)   ,개포동 183 정류소,37.490426 ,127.070030 ,4,,
개포동 개포주공 6단지 정류소(버스 택시 등)   ,개포동 185 정류소,37.488876 ,127.071668 ,4,,
개포동 182-1 정류소(버스 택시 등)   ,개포동 182-1 정류소,37.489784 ,127.068211 ,4,,
개포동 186 도로변(횡단보도 포함),개포동 186 도로변,37.488960 ,127.066654 ,4,,
개포동역 1번출구 정류소(버스 택시 등)   ,서울 강남구 개포동 180-2 정류소,37.489132 ,127.065474 ,4,,
개포동 개포주공 1단지 도로변(횡단보도 포함),서울 강남구 개포동 141 정류소,37.478489 ,127.061614 ,4,,
개포동 655-3 도로변(횡단보도 포함),개포동 655-3 도로변,37.481126 ,127.053243 ,4,,
개포동 달터공원 정류소(버스 택시 등)   ,개포동 156 정류소,37.485364 ,127.061056 ,4,,
개포동 개포지구대 도로변(횡단보도 포함),서울 강남구 개포로 261 정류소,37.479778 ,127.051168 ,4,,
개포동 1231-1 정류소(버스 택시 등)   ,개포동 1231-1 정류소,37.478466 ,127.047357 ,4,,
개포동 근린공원 도로변(횡단보도 포함),서울 강남구 개포동 182-1 정류소,37.489784 ,127.068211 ,4,,
개포동 1239-19 정류소(버스 택시 등)   ,개포동 1239-19 정류소,37.478562 ,127.045100 ,4,,
개포동 1246-2 도로변(횡단보도 포함),개포동 1246-2 도로변,37.478712 ,127.045932 ,4,,
개포동 대모산역 2번출구 정류소(버스 택시 등)   ,서울 강남구 영동대로 101 도로변,37.491567 ,127.071894 ,4,,
개포동 대모산역 7번출구 도로변(횡단보도 포함),서울 강남구 개포동 196 도로변,37.488762 ,127.073992 ,4,,
일원동 주공9단지 정류소(버스 택시 등)   ,서울 강남구 영동대로 16 정류소,37.488702 ,127.074832 ,4,,
일원동 613 도로변(횡단보도 포함),서울 강남구 개포로110길 21 도로변,37.490957 ,127.077324 ,4,,
일원동 대모산역 도로변(횡단보도 포함),서울 강남구 개포로 지하 522 도로변,37.491545 ,127.073169 ,4,,
일원동 대치아파트 정류소(버스 택시 등)   ,서울 강남구 개포로 613 도로변,37.492554 ,127.075132 ,4,,
대치동 선경아파트 정류소(버스 택시 등)   ,서울 강남구 남부순환로 2936 정류소,37.493349 ,127.061917 ,4,,
개포동 개포동역 7번출구 정류소(버스 택시 등)   ,서울 강남구 개포로 416 정류소,37.488279 ,127.065314 ,4,,
개포동 152 정류소(버스 택시 등)   ,개포동 152 정류소,37.486712 ,127.065908 ,4,,
개포동 개포3단지 정류소(버스 택시 등)   ,서울 강남구 개포동 191 정류소,37.483202 ,127.070573 ,4,,
개포동 주공4단지 정류소(버스 택시 등)   ,개포동 186-16 정류소,37.489266 ,127.068360 ,4,,
개포동 주공5단지 정류소(버스 택시 등)   ,서울 강남구 개포2동 정류소,37.489826 ,127.069134 ,4,,
개포동 186-2 도로변(횡단보도 포함),개포동 186-2 도로변,37.488376 ,127.066955 ,4,,
대치동 미도아파트 정류소(버스 택시 등)   ,서울 강남구 삼성로 150 미도아파트 단지내상가 1층 173호 정류소,37.495695 ,127.068565 ,4,,
선경아파트 5동앞 도로변(횡단보도 포함),대치동 506 정류소,37.492127 ,127.062565 ,4,,
도곡동 타워팰리스 F동 앞 정류소(버스 택시 등)   ,서울 강남구 언주로30길 57,37.489457 ,127.053965 ,4,,
개포동 650 구룡중학교 앞 정류소(버스 택시 등)   ,서울 강남구 선릉로 103 정류소,37.486213 ,127.056508 ,4,,
개포동 주공1단지(3동 앞) 정류소(버스 택시 등)   ,서울 강남구 개포동 141 정류소,37.478489 ,127.061614 ,4,,
개포동 래미안블레스티지 223동 앞 정류소(버스 택시 등)   ,서울 강남구 선릉로 8 223동 B3 앞 정류소,37.480058 ,127.064153 ,4,,
개포동 개포연금매장 앞 정류소(버스 택시 등)   ,서울 강남구 선릉로 32 앞 정류소,37.482700 ,127.060945 ,4,,
개포동 개포래미안포레스트 106동 앞 정류소(버스 택시 등)   ,서울 강남구 개포로 264 앞 정류소,37.479750 ,127.052228 ,4,,
도곡동 467-18 정류소(버스 택시 등)   ,도곡동 467-18 정류소,37.487081 ,127.051053 ,4,,
개포동 1194-6 정류소(버스 택시 등)   ,개포동 1194-6 정류소,37.474386 ,127.048451 ,4,,
개포동 1229-4 정류소(버스 택시 등)   ,개포동 1229-4 정류소,37.477392 ,127.045347 ,4,,
도곡동 518-10 도로변(횡단보도 포함),도곡동 518-10 도로변,37.482424 ,127.043039 ,4,,
도곡동 459-4 도로변(횡단보도 포함),도곡동 459-4 도로변,37.483278 ,127.047056 ,4,,
일원동 현대아파트 정류소(버스 택시 등)   ,서울 강남구 일원동 614 정류소,37.490968 ,127.077719 ,4,,
일원동 대청역 정류소(버스 택시 등)   ,일원동 700-9 정류소,37.493659 ,127.079560 ,4,,
일원역 1번출구 정류소(버스 택시 등)   ,서울 강남구 일원동 717-1 정류소,37.484350 ,127.083884 ,4,,
일원동 삼성의료원 정문 정류소(버스 택시 등)   ,일원동 50,37.488662 ,127.085982 ,4,,
일원동 617 영희초등학교 정류소(버스 택시 등)   ,서울 강남구 일원로3길 4 앞 정류장,37.491051 ,127.081177 ,4,,
대청역 4번출구 중동고교 정류소(버스 택시 등)   ,서울 강남구 일원로 7,37.493713 ,127.080660 ,4,,
수서역 1번출구 엘리베이터 앞 정류소(버스 택시 등)   ,서울 강남구 밤고개로 99,37.485419 ,127.104560 ,4,,
수서동 수서동익아파트 정류소(버스 택시 등)   ,서울 강남구 광평로39길 3 앞 정류소,37.485766 ,127.097263 ,4,,
일원본동 일원역 3번출구 정류소(버스 택시 등)   ,서울 강남구 일원로 115 앞 정류소,37.484022 ,127.084460 ,4,,
일원본동 푸른마을아파트 정류소(버스 택시 등)   ,서울 강남구 광평로 63 정오빌딩,37.482861 ,127.079626 ,4,,
일원본동 731 정류소(버스 택시 등)   ,일원본동 731,37.482020 ,127.077849 ,4,,
일원본동 일원역 5번출구 정류소(버스 택시 등)   ,서울 강남구 일원동 733,37.482963 ,127.081343 ,4,,
수서동 724 정류소(버스 택시 등)   ,수서동 724 정류소,37.487327 ,127.103140 ,4,,
수서동 수서역 정류소(버스 택시 등)   ,서울 강남구 밤고개로 99 정류소,37.485419 ,127.104560 ,4,,
세곡동 주민센터 정류소(버스 택시 등)   ,서울 강남구 밤고개로 286 정류소,37.469049 ,127.106913 ,4,,
세곡동사거리 정류소(버스 택시 등)   ,서울 강남구 세곡동 128-2 정류소,37.464449 ,127.107197 ,4,,
세곡동 리엔파크 앞 도로변(횡단보도 포함),세곡동 516 도로변,37.463780 ,127.104410 ,4,,
세곡동 대왕초교 앞 도로변(횡단보도 포함),서울 강남구 세곡동 128-2 도로변,37.464449 ,127.107197 ,4,,
수서역 5번출구 정류소(버스 택시 등)   ,서울 강남구 수서동 724-4 정류소,37.486830 ,127.102703 ,4,,
수서동 삼익아파트 401동 앞 정류소(버스 택시 등)   ,서울 강남구 수서동 707-4 정류소,37.489849 ,127.099287 ,4,,
개포6단지 정류소(버스 택시 등)   ,서울 강남구 개포로 516 정류소,37.489141 ,127.070872 ,4,,
개포동 개포래미안포레스트 122동 앞 정류소(버스 택시 등)   ,서울 강남구 언주로7길 23 정류소,37.477075 ,127.055481 ,4,,
개포동 273 포이초등학교 앞 정류소(버스 택시 등)   ,서울 강남구 개포로22길 87 정류소,37.475817 ,127.052046 ,4,,
개포동 272 국악고등학교 앞 정류소(버스 택시 등)   ,서울 강남구 개포로22길 65 정류소,37.476240 ,127.051214 ,4,,
역삼동747-24 정류소(버스 택시 등)   ,역삼동747-24 정류소,37.496239 ,127.038702 ,4,,
LH푸르지오 201동 정류장 정류소(버스 택시 등)   ,서울 강남구 자곡로 21 정류소,37.467347 ,127.093265 ,4,,
세곡중학교 314주변 정류장 정류소(버스 택시 등)   ,서울 강남구 자곡로3길 22 정류소,37.469971 ,127.091021 ,4,,
세곡중학교건너편 공원앞 정류장 정류소(버스 택시 등)   ,서울 강남구 자곡동 627 정류소,37.470390 ,127.092399 ,4,,
래미안강남힐즈 정류소(버스 택시 등)   ,서울 강남구 자곡로 101 상가동 정류소,37.472655 ,127.095806 ,4,,
못골마을 정류소(버스 택시 등)   ,서울 강남구 자곡로 175 정류소,37.474274 ,127.102642 ,4,,
한양수자원아파트 건너편 23-393 정류소(버스 택시 등)   ,서울 강남구 밤고개로5길 46-13 정류소,37.478588 ,127.111409 ,4,,
한양수자원아파트  정류소(버스 택시 등)   ,서울 강남구 자곡로 260 정류소,37.476563 ,127.111752 ,4,,
대왕파출소 앞 정류소(버스 택시 등)   ,서울 강남구 헌릉로 623 정류소,37.465176 ,127.107362 ,4,,
수서역 SRT 안쪽 광장등 다중집합장소,서울 강남구 수서동 199-3 안쪽,37.484967 ,127.105546 ,4,,
세곡동 은곡마을 상업지구 정류소(버스 택시 등)   ,서울 강남구 헌릉로569길 18 정류소,37.467274 ,127.099930 ,4,,
리엔파크 구립행복요양병원 앞 정류소(버스 택시 등)   ,서울 강남구 헌릉로590길 60 정류소,37.461177 ,127.103323 ,4,,
휘문중 고등학교 정류소(버스 택시 등) ,서울 강남구 역삼로 541 정류소,37.505289 ,127.061994 ,4,,
청담오후,서울특별시 강남구 청담동 40-32 2층,37.518203 ,127.041143 ,5,,
뷰티그로서리,서울특별시 강남구 신사동 648-16,37.523680 ,127.036763 ,5,,
비스트로상수,서울특별시 강남구 개포동 1228-5,37.475331 ,127.047472 ,5,,
모스가든,서울특별시 강남구 논현동 30-6,37.516643 ,127.028369 ,5,,
신사890,서울특별시 강남구 신사동 514-21,37.517564 ,127.021569 ,5,,
조인바이트,서울특별시 강남구 삼성동 36-11,37.511484 ,127.044637 ,5,,
FIREBELL 대치본점,서울특별시 강남구 대치동 908-17,37.500379 ,127.052228 ,5,,
윌로뜨,서울특별시 강남구 청담동 19-17,37.522736 ,127.043398 ,5,,
압구정제주집,서울특별시 강남구 신사동 588-12,37.521508 ,127.031108 ,5,,
롤린우드,서울특별시 강남구 청담동 20-29,37.521825 ,127.042725 ,5,,
꽁티드툴레아,서울특별시 강남구 신사동 646-21,37.525546 ,127.036907 ,5,,
SADDLER HAUS,서울특별시 강남구 신사동 561-8,37.519408 ,127.024929 ,5,,
스케줄청담,서울특별시 강남구 청담동 90-19,37.524670 ,127.042708 ,5,,
까폼,서울특별시 강남구 신사동 655-15,37.524882 ,127.037996 ,5,,
까사밀,서울특별시 강남구 신사동 527-2,37.521990 ,127.019549 ,5,,
문어랑 상록점,"서울특별시 강남구 역삼동 699 1층,2층",37.505444 ,127.042531 ,5,,
세바,서울특별시 강남구 신사동 629-1 1층,37.521717 ,127.031687 ,5,,
쏭타이 역삼점,서울특별시 강남구 역삼동 664-32,37.505716 ,127.040275 ,5,,
Ginos NY Pizza 압구정점,서울특별시 강남구 신사동 655-3 1층 지노스피자,37.525394 ,127.038360 ,5,,
킹박스,서울특별시 강남구 논현동 21-16 1층,37.514036 ,127.021212 ,5,,
모터시티바이매니멀강남점,서울특별시 강남구 역삼동 817-33 2층,37.500573 ,127.027896 ,5,,
더블트러블 유니온,서울특별시 강남구 신사동 523-28,37.521520 ,127.021001 ,5,,
워커비,서울특별시 강남구 신사동 652-11 지하1층,37.523590 ,127.037942 ,5,,
레브 바,서울특별시 강남구 신사동 663 1층,37.526851 ,127.038042 ,5,,
크라이치즈버거 삼성역점,서울특별시 강남구 대치동 996-17 미래에셋벤처타워 B1층,37.509052 ,127.065286 ,5,,
스페인클럽 가로수본점,서울특별시 강남구 신사동 524-30,37.521907 ,127.021860 ,5,,
올데이피자 서비스,서울특별시 강남구 신사동 559-10,37.520153 ,127.025967 ,5,,
UPPERWEST,서울특별시 강남구 신사동 542-4,37.519865 ,127.023612 ,5,,
바 밀라,서울특별시 강남구 청담동 12-12,37.523187 ,127.046551 ,5,,
뉴욕라츠오베이글스,서울특별시 강남구 신사동 642-6,37.526793 ,127.036637 ,5,,
큰돈가 신사점,서울특별시 서초구 잠원동 14-13,37.515956 ,127.018465 ,5,,
레옹앤마틸다,서울특별시 강남구 신사동 555-25 102호,37.521467 ,127.024846 ,5,,
슈퍼막셰,서울특별시 강남구 신사동 514-18 1층 슈퍼막셰 커피앤델리 신사역점,37.517218 ,127.021225 ,5,,
블랙루머 BLACK RUMOR,서울특별시 강남구 신사동 660-17 A동 105호,37.527975 ,127.037200 ,5,,
페인팅룸,서울특별시 강남구 신사동 644-13 은미르빌딩 B1 페인팅룸,37.526628 ,127.035631 ,5,,
메종 르자당,서울특별시 강남구 신사동 650-14 2층,37.523307 ,127.036015 ,5,,
에드엣,서울특별시 강남구 신사동 524-23 지하1층,37.522066 ,127.021504 ,5,,
카페드로우지,"서울특별시 강남구 신사동 642-8 4층, 5층 루프탑",37.526595 ,127.036749 ,5,,
미엘,서울특별시 강남구 청담동 94-3 퍼즐하우스,37.525262 ,127.043616 ,5,,
핀치브런치바,서울특별시 강남구 신사동 523-36,37.521480 ,127.020591 ,5,,
자매의 부엌,서울특별시 강남구 신사동 520-7,37.520921 ,127.022003 ,5,,
달마시안,서울특별시 강남구 신사동 634-17,37.526239 ,127.034520 ,5,,
틴틴 강남점,서울특별시 강남구 역삼동 810-4,37.503540 ,127.026145 ,5,,
다운타우너 청담,서울특별시 강남구 신사동 666-25,37.524048 ,127.038558 ,5,,
마사 타코,서울특별시 강남구 신사동 524-29,37.522005 ,127.021742 ,5,,
어썸로즈,서울특별시 강남구 신사동 520-7,37.503683 ,127.027463 ,5,,
위트앤미트 강남점,서울특별시 강남구 역삼동 616-4 1층,37.502838 ,127.027394 ,5,,
에이치피 서울,서울특별시 강남구 역삼동 812-13,37.527939 ,127.037715 ,5,,
호쿠모쿠,서울특별시 강남구 신사동 660-14 1층,37.479426 ,126.980826 ,5,,
돈페페,서울특별시 동작구 사당동 1031-4,37.503880 ,126.942775 ,5,,
비단콤마,서울특별시 동작구 상도동 535,37.480528 ,126.980681 ,5,,
오마주,서울특별시 동작구 사당동 1029-37 1층,37.484761 ,126.981521 ,5,,
아트나인&잇나인,서울특별시 동작구 사당동 147-53,37.500025 ,126.925846 ,5,,
바이슨버거,서울특별시 동작구 대방동 395-18 1층,37.481026 ,126.981309 ,5,,
3공간 사당,서울특별시 동작구 사당동 1019-21,37.481717 ,126.973446 ,5,,
펫타리움,"서울특별시 강남구 청담동 68-7 6, 7층",37.522461 ,127.055120 ,6,,
강아지똥 애견카페,서울특별시 강남구 논현동 170,37.508332 ,127.027219 ,6,,
카페더왈츠,서울특별시 강남구 역삼동 834-8,37.494134 ,127.034306 ,6,,
봉브라더스,서울특별시 강남구 논현동 181-12 2층,37.507350 ,127.026262 ,6,,
전설의 강아지,서울특별시 강남구 논현동 265-23,37.512029 ,127.041171 ,6,,
반려문화,서울특별시 강남구 논현동 85-13,37.515938 ,127.033303 ,6,,
다독인더 시티,서울특별시 강남구 역삼동 608-23,37.504581 ,127.034063 ,6,,
두젠틀,서울특별시 강남구 역삼동 667-10,37.504201 ,127.036074 ,6,,
어야가자애견카페,서울특별시 강남구 역삼동 662-1,37.506597 ,127.039790 ,6,,
개러리아 삼성본점,서울특별시 강남구 삼성동 9-16,37.514463 ,127.042901 ,6,,
글램독 그라운드 삼성점,서울특별시 강남구 삼성동 152-69 1층 글램독 그라운드 삼성점,37.510588 ,127.056420 ,6,,
멍돌핀 애견카페,서울특별시 강남구 논현동 170-28 2층 멍돌핀,37.507964 ,127.027242 ,6,,
드도그카페,서울특별시 강남구 삼성동 150-19 2층 드도그카페,37.510852 ,127.054808 ,6,,
감성놀이터,서울특별시 동작구 상도로58길 4,37.495920 ,126.953041 ,6,,
두젠틀장승배기역점,서울특별시 동작구 상도동 26-27,37.505429 ,126.942879 ,6,,
웰컴댕댕,서울특별시 동작구 대방동 17-20 2층 웰컴댕댕,37.509097 ,126.932336 ,6,,
펠트커피 도산공원점,서울특별시 강남구 신사동 645-21,37.525639 ,127.035435 ,7,,
맘마미아,서울특별시 강남구 신사동 645-26,37.525912 ,127.034644 ,7,,
정월,서울특별시 강남구 역삼동 618-21,37.503671 ,127.028595 ,7,,
홍차가게 청담,서울특별시 강남구 삼성동 57-11 1층,37.518946 ,127.054697 ,7,,
윌비 가로수길점,서울특별시 강남구 신사동 517-4,37.519263 ,127.020905 ,7,,
뉴욕라츠오베이글스,서울특별시 강남구 신사동 642-6,37.526793 ,127.036637 ,7,,
정다방,서울특별시 강남구 역삼동 725-51,37.499259 ,127.040025 ,7,,
덴시티커피,서울특별시 강남구 청담동 7-4,37.523000 ,127.047047 ,7,,
키쏘커피 파랑헌,서울특별시 강남구 신사동 646-15,37.525645 ,127.036612 ,7,,
카페 레꼴뜨,서울특별시 강남구 역삼동 681-58,37.509144 ,127.042554 ,7,,
카페 노티드 청담,서울특별시 강남구 신사동 654-9,37.524195 ,127.038303 ,7,,
메이킷 카페,서울특별시 강남구 삼성동 127-9,37.509683 ,127.054695 ,7,,
수목금토 카페,서울특별시 강남구 논현동 25-6,37.514530 ,127.025485 ,7,,
카페엔바이콘 논현점,서울특별시 강남구 논현동 4-18,37.517179 ,127.022974 ,7,,
웻커피 신사,서울특별시 강남구 신사동 507-3 1층,37.519935 ,127.020056 ,7,,
바잇미 신사점,서울특별시 강남구 신사동 525-22,37.522574 ,127.021256 ,7,,
우디집 도산점,서울특별시 강남구 신사동 644-22,37.526549 ,127.036000 ,7,,
카페알케미,서울특별시 강남구 일원동 646-4,37.491267 ,127.087278 ,7,,
겟썸커피,서울특별시 강남구 역삼동 812-3,37.503083 ,127.027251 ,7,,
602dessert,서울특별시 강남구 일원동 677-11,37.491572 ,127.082715 ,7,,
Small Batch Seoul,서울특별시 강남구 신사동 634-8,37.525993 ,127.034085 ,7,,
커피휘엘,서울특별시 강남구 논현동 4-21,37.516997 ,127.023584 ,7,,
삼삼공데이,서울특별시 강남구 역삼동 642-6,37.501695 ,127.035977 ,7,,
까사디도노,서울특별시 강남구 청담동 16-2 1층,37.521291 ,127.044490 ,7,,
마츄피츄,서울특별시 강남구 논현동 254-22,37.513673 ,127.041024 ,7,,
카페키츠네,서울특별시 강남구 신사동 535-13,37.519579 ,127.022784 ,7,,
니블스,서울특별시 강남구 신사동 551-11,37.522245 ,127.023709 ,7,,
어반81,서울특별시 강남구 삼성동 46-8 101호.,37.512621 ,127.048580 ,7,,
블랙루머 BLACK RUMOR,서울특별시 강남구 신사동 660-17 A동 105호,37.527975 ,127.037200 ,7,,
페인팅룸,서울특별시 강남구 신사동 644-13 은미르빌딩 B1 페인팅룸,37.526628 ,127.035631 ,7,,
메종 르자당,서울특별시 강남구 신사동 650-14 2층,37.523307 ,127.036015 ,7,,
카페오터스,서울특별시 강남구 삼성동 121-20 1층 101호,37.510515 ,127.053026 ,7,,
올디너리모먼트,서울특별시 강남구 도곡동 517-8,37.484013 ,127.044190 ,7,,
요거티 강남본점,서울특별시 강남구 역삼동 840-7 1층,37.491491 ,127.036439 ,7,,
Coffee Writer,서울특별시 강남구 신사동 567-17,37.523443 ,127.026842 ,7,,
천장지구,서울특별시 강남구 논현동 93-15 2층,37.522180 ,127.038350 ,7,,
누누커피,서울특별시 강남구 삼성동 159 오크우드호텔 코엑스 별관 지하2층,37.512521 ,127.058819 ,7,,
르와조 역삼,서울특별시 강남구 역삼동 640-21 1층,37.502437 ,127.035042 ,7,,
더스노우 대치본점,서울특별시 강남구 대치동 907-1 코람벤처타운 1층,37.501233 ,127.051004 ,7,,
뇸,서울특별시 강남구 역삼동 773-10 1층,37.496672 ,127.044766 ,7,,
빠삐용빵,서울특별시 강남구 논현동 32-18 k동 1층,37.517466 ,127.027250 ,7,,
라브리크 서울,서울특별시 강남구 역삼동 619-10 라브리크,37.502385 ,127.027916 ,7,,
타우너스 에스프레소 바,서울특별시 강남구 역삼동 725-57 타우너스 1층,37.498440 ,127.039856 ,7,,
에이엔아더,서울특별시 강남구 논현동 116-7 지상 1층,37.516250 ,127.037430 ,7,,
스케줄청담,서울특별시 강남구 청담동 90-19,37.524670 ,127.042708 ,7,,
더데이즈커피,서울특별시 강남구 도곡동 413-3,37.484830 ,127.042965 ,7,,
달콤가든,서울특별시 강남구 논현동 78-9,37.516396 ,127.031745 ,7,,
더포트,서울특별시 강남구 청담동 130-23 1층,37.525235 ,127.055517 ,7,,
가배도 신논현,서울특별시 강남구 역삼동 601-12,37.504097 ,127.025852 ,7,,
구테로이테,서울특별시 강남구 논현동 112-19,37.517655 ,127.039651 ,7,,
이웃집통통이 로데오점,서울특별시 강남구 신사동 662-9 1층,37.527315 ,127.038773 ,7,,
더스노우 논현점,서울특별시 강남구 논현동 185-1,37.507096 ,127.026504 ,7,,
식물학,서울특별시 강남구 신사동 516-16 1층 카페 식물학,37.518376 ,127.021666 ,7,,
아가젤라또,서울특별시 강남구 신사동 564-3 1층,37.521687 ,127.027088 ,7,,
아이엠씨,서울특별시 강남구 청담동 118-17 네이처 포엠 지하1층,37.525284 ,127.047239 ,7,,
한남베르그 도산,서울특별시 강남구 신사동 647-14 1층 105호,37.525018 ,127.036962 ,7,,
레옹앤마틸다,서울특별시 강남구 신사동 555-25 102호,37.521467 ,127.024846 ,7,,
BELOW SINSA,서울특별시 강남구 신사동 551-11 1층 101호,37.480611 ,126.979098 ,7,,
머치커피,서울특별시 동작구 사당동 1026-35,37.483665 ,126.976145 ,7,,
먼셀커피 이수점,서울특별시 동작구 사당동 324-16 1층,37.502739 ,126.940146 ,7,,
보트커피,서울특별시 동작구 상도동 184-4,37.481820 ,126.981112 ,7,,
바이엠,서울특별시 동작구 상도동 32-6,37.478375 ,126.979335 ,7,,
자매커피,서울특별시 동작구 사당동 1040-2,37.480121 ,126.979503 ,7,,
카페왓송,서울특별시 동작구 사당동 1028-13,37.481561 ,126.972456 ,7,,
시너리,서울특별시 동작구 사당로25가길 1,37.503160 ,126.948613 ,7,,
우부래도,서울특별시 동작구 상도1동 666-3,37.493861 ,126.926469 ,7,,
레스트어와일,서울특별시 동작구 신대방동 344-136,37.485247 ,126.979254 ,7,,
카페브르브르,서울특별시 동작구 사당동 141-48,37.478827 ,126.979244 ,7,,
위드버터,서울특별시 동작구 사당동 1033-2,37.506824 ,126.959648 ,7,,
토크넌센스,서울특별시 동작구 흑석동 223-15,37.504206 ,126.945937 ,7,,
헤븐리가든,서울특별시 동작구 상도동 29-2,37.478989 ,126.978097 ,7,,
멜로우무드,서울특별시 동작구 사당동 1034-15,37.500381 ,126.926556 ,7,,
카페알코브,서울특별시 동작구 대방동 391-357,37.483982 ,126.979733 ,7,,
이수카페 사이,서울특별시 동작구 사당동 1006-20,37.509632 ,126.962204 ,7,,
오티움 로스터리,서울특별시 동작구 상도1동 622 1층,37.490216 ,126.964566 ,7,,
미지수카페,서울특별시 동작구 사당동 188-1,37.504247 ,126.923048 ,7,,
카페익스큐즈미,서울특별시 동작구 대방동 399-7,37.501512 ,126.953392 ,7,,
유별커피,서울특별시 동작구 사당동 262-21,37.504904 ,126.922583 ,7,,
카페플랫,서울특별시 동작구 대방동 385-22 1층 101호,37.503980 ,126.944648 ,7,,
서브젝트 커피,서울특별시 동작구 상도동 28-26 1층 서브젝트 커피,37.486387 ,126.979686 ,7,,
앳더스크,서울특별시 동작구 사당동 141-44 앳더스크,37.486274 ,126.979638 ,7,,
요굿트,서울특별시 동작구 사당동 141-45,37.497884 ,126.931459 ,7,,
카페 헷지,서울특별시 동작구 상도동 308-9 1층 카페헷지,37.512402 ,126.928037 ,7,,
본디,서울특별시 동작구 대방동 340-3 1층 스타트업매장 4호,37.510867 ,126.945663 ,7,,
고미제과,서울특별시 동작구 노량진동 123-37 1층 102호 고미제과,37.490231 ,126.982217 ,7,,
파니모들,서울특별시 동작구 사당동 79-3 원옥빌딩 1층,37.477248 ,126.979119 ,7,,
키키젤라또,서울특별시 동작구 사당동 1044-18 1층,37.497566 ,126.923938 ,7,,
기역니은디귿제빵점,서울특별시 동작구 신대방동 360-224 ㄱㄴㄷ제빵점,37.504226 ,126.948817 ,7,,
잔디속에있다고상상을해,서울특별시 동작구 상도1동 691 2층,37.495937 ,126.953050 ,7,,
히뽀1997,서울특별시 동작구 본동 126-125,37.498615 ,126.933606 ,7,,
카페희희,서울특별시 동작구 상도동 256-1 B06호,37.485588 ,126.972403 ,7,,
대모산도시자연공원,서울특별시 강남구 광평로10길 30-71(대모산공원) ,37.479649 ,127.080964 ,8,,
도곡근린공원,서울특별시 강남구 도곡동 산31-1,37.490313 ,127.045034 ,8,,
도산근린공원,서울특별시 강남구 도산대로45길 20(도산공원),37.524675 ,127.035030 ,8,,
봉은공원,서울특별시 강남구 삼성동 75,37.513903 ,127.055496 ,8,,
광평근린공원,서울특별시 강남구 수서동 산10-1,37.488045 ,127.092184 ,8,,
청담근린공원,서울특별시 강남구 청담동 66,37.521326 ,127.052453 ,8,,
율현공원,서울특별시 강남구 율현동 밤고개로24길(율현동 56),37.472332 ,127.115594 ,8,,
보라매근린공원,서울특별시 동작구 여의대방로20길 33(보라매공원),37.492333 ,126.918289 ,8,,
국립현충원,서울특별시 동작구 사당2동 산41-2,37.499862 ,126.973685 ,8,,
까치산근린공원,서울특별시 동작구 사당동 산32,37.484584 ,126.964074 ,8,,
노량진공원,서울특별시 동작구 여의대방로 15-45(여의대방로36길 71),37.510234 ,126.928607 ,8,,
사육신공원,서울특별시 동작구 노량진로 191,37.513705 ,126.948636 ,8,,
삼일근린공원,서울특별시 동작구 사당동 산24-17,37.486018 ,126.974369 ,8,,
상도근린공원,서울특별시 동작구 성대로6사길 27-6(상도공원) ,37.492299 ,126.938547 ,8,,
